HIERARCHY
ROOT Hips
{
	OFFSET 0.000000 0.000000 0.000000
	CHANNELS 6 Xposition Yposition Zposition Zrotation Xrotation Yrotation
	JOINT Spine1
	{
		OFFSET -0.000137 0.050038 -0.000537
		CHANNELS 3 Zrotation Xrotation Yrotation
		JOINT Spine2
		{
			OFFSET -0.000000 0.071253 -0.000298
			CHANNELS 3 Zrotation Xrotation Yrotation
			JOINT Chest
			{
				OFFSET -0.000000 0.075501 -0.008160
				CHANNELS 3 Zrotation Xrotation Yrotation
				JOINT Neck1
				{
					OFFSET -0.001817 0.263113 -0.005533
					CHANNELS 3 Zrotation Xrotation Yrotation
					JOINT Neck2
					{
						OFFSET -0.000000 0.077094 0.023026
						CHANNELS 3 Zrotation Xrotation Yrotation
						JOINT Head
						{
							OFFSET -0.000000 0.061289 0.019537
							CHANNELS 3 Zrotation Xrotation Yrotation
							JOINT Jaw
							{
								OFFSET 0.000026 0.004756 0.030949
								CHANNELS 3 Zrotation Xrotation Yrotation
								End Site
								{
									OFFSET 0.000000 0.015656 0.000000
								}
							}
							JOINT LeftEye
							{
								OFFSET 0.032064 0.053802 0.075869
								CHANNELS 3 Zrotation Xrotation Yrotation
								End Site
								{
									OFFSET 0.000000 0.049191 0.000000
								}
							}
							JOINT RightEye
							{
								OFFSET -0.032224 0.053619 0.075582
								CHANNELS 3 Zrotation Xrotation Yrotation
								End Site
								{
									OFFSET 0.000000 0.049056 0.000000
								}
							}
						}
					}
				}
				JOINT LeftShoulder
				{
					OFFSET 0.016217 0.232372 0.051134
					CHANNELS 3 Zrotation Xrotation Yrotation
					JOINT LeftArm
					{
						OFFSET 0.149198 0.000000 -0.055023
						CHANNELS 3 Zrotation Xrotation Yrotation
						JOINT LeftForeArm
						{
							OFFSET 0.287393 0.000000 -0.000026
							CHANNELS 3 Zrotation Xrotation Yrotation
							JOINT LeftHand
							{
								OFFSET 0.270940 -0.000000 0.000026
								CHANNELS 3 Zrotation Xrotation Yrotation
								JOINT LeftHandThumbEnd
								{
									OFFSET 0.122686 -0.032202 0.048331
									CHANNELS 3 Zrotation Xrotation Yrotation
									End Site
									{
										OFFSET 0.000000 0.067869 0.000000
									}
								}
								JOINT LeftHandMiddleEnd
								{
									OFFSET 0.190120 -0.003129 -0.000340
									CHANNELS 3 Zrotation Xrotation Yrotation
									End Site
									{
										OFFSET 0.000000 0.095073 0.000000
									}
								}
							}
						}
					}
				}
				JOINT RightShoulder
				{
					OFFSET -0.013801 0.231803 0.052142
					CHANNELS 3 Zrotation Xrotation Yrotation
					JOINT RightArm
					{
						OFFSET -0.150372 0.000000 -0.055456
						CHANNELS 3 Zrotation Xrotation Yrotation
						JOINT RightForeArm
						{
							OFFSET -0.287366 0.000000 -0.000026
							CHANNELS 3 Zrotation Xrotation Yrotation
							JOINT RightHand
							{
								OFFSET -0.271336 -0.000000 0.000026
								CHANNELS 3 Zrotation Xrotation Yrotation
								JOINT RightHandThumbEnd
								{
									OFFSET -0.122642 -0.032115 0.048040
									CHANNELS 3 Zrotation Xrotation Yrotation
									End Site
									{
										OFFSET 0.000000 0.067787 0.000000
									}
								}
								JOINT RightHandMiddleEnd
								{
									OFFSET -0.190006 -0.003066 -0.000316
									CHANNELS 3 Zrotation Xrotation Yrotation
									End Site
									{
										OFFSET 0.000000 0.095015 0.000000
									}
								}
							}
						}
					}
				}
			}
		}
	}
	JOINT LeftLeg
	{
		OFFSET 0.100432 -0.084345 0.025957
		CHANNELS 3 Zrotation Xrotation Yrotation
		JOINT LeftShin
		{
			OFFSET -0.000000 -0.432218 -0.008029
			CHANNELS 3 Zrotation Xrotation Yrotation
			JOINT LeftFoot
			{
				OFFSET 0.000000 -0.421551 -0.034815
				CHANNELS 3 Zrotation Xrotation Yrotation
				JOINT LeftToeBase
				{
					OFFSET 0.000000 -0.050595 0.132315
					CHANNELS 3 Zrotation Xrotation Yrotation
					End Site
					{
						OFFSET 0.000000 -0.070829 0.000000
					}
				}
			}
		}
	}
	JOINT RightLeg
	{
		OFFSET -0.100473 -0.082953 0.026203
		CHANNELS 3 Zrotation Xrotation Yrotation
		JOINT RightShin
		{
			OFFSET 0.000000 -0.433622 -0.008056
			CHANNELS 3 Zrotation Xrotation Yrotation
			JOINT RightFoot
			{
				OFFSET 0.000000 -0.421174 -0.034784
				CHANNELS 3 Zrotation Xrotation Yrotation
				JOINT RightToeBase
				{
					OFFSET -0.000000 -0.050796 0.132842
					CHANNELS 3 Zrotation Xrotation Yrotation
					End Site
					{
						OFFSET 0.000000 -0.071111 0.000000
					}
				}
			}
		}
	}
}
MOTION
Frames: 90
Frame Time: 0.03333333
-0.013100 0.949398 -0.030195 -6.573575 0.713492 -0.783735 0.493864 -1.342410 -0.541390 -0.879951 -5.355676 -3.518165 3.615906 12.064652 -4.742078 6.840679 6.052308 -0.584053 -1.580041 -3.529507 -0.735924 -0.015122 -9.300853 -2.294820 0.002059 0.028699 -0.117746 -0.087247 -10.495673 -3.928212 0.063508 -10.538605 3.689237 -2.136421 10.979300 -10.952511 -55.985525 1.483699 -31.448973 -0.014099 0.197014 -49.840239 15.383739 -6.593703 -2.707187 -17.957583 6.233163 18.403911 -60.815758 -1.066909 2.342817 16.169963 14.045921 4.021565 60.901028 6.790185 -4.041907 -0.576184 -0.233718 18.699680 1.077625 4.327839 0.884714 16.667363 2.417724 -17.594352 49.511415 -6.331398 -0.357637 15.921913 21.824609 2.152857 0.534705 18.655975 -1.318668 -4.870413 -0.189662 0.183521 1.344666 -27.079884 -1.952961 -0.384529 -27.614422 -16.954011 0.091016 27.205369 0.106051 0.291281 0.095362 -8.223975 -1.329871 -2.482388 0.945665
-0.033842 0.951925 0.007344 -8.114349 0.395739 -2.042654 1.152251 -1.098181 -0.472538 -0.666011 -5.273811 -3.429999 4.120915 11.907531 -4.520291 5.917681 5.779921 -0.100954 -1.466035 -3.545293 -0.593603 -0.063967 -9.845517 -1.641371 0.005750 0.021611 -0.127776 -0.063580 -10.474892 -3.935027 0.041462 -10.504653 3.672193 -2.627826 11.535830 -10.318475 -56.135504 1.868013 -28.042192 -0.029204 0.045355 -48.313372 14.832925 -7.021271 -3.088666 -18.017827 6.078755 18.200409 -60.373585 -1.036787 2.260560 15.410137 14.352532 4.479237 61.285193 8.245096 -1.778338 -0.673705 -0.219592 18.172017 1.592368 3.927167 0.570939 16.708988 2.470478 -17.677197 49.780525 -6.258801 -0.429511 18.137343 19.125942 1.415214 0.786638 27.959845 -1.591633 -4.860128 5.237228 2.548631 1.420451 -27.647858 -1.894014 3.357672 -25.223733 -14.863544 0.130293 28.376919 0.018597 -0.305741 -2.933313 -8.529600 -1.362638 -1.789232 0.952239
-0.053989 0.954697 0.045401 -9.490241 -0.225326 -3.443343 1.804206 -0.267347 -0.371970 -0.373018 -5.076085 -3.101737 4.621322 11.853176 -4.330979 4.571807 5.145636 0.390037 -1.192575 -3.575656 -0.499192 -0.330413 -11.218937 -0.815502 0.013605 0.008674 -0.105342 -0.033169 -10.516206 -3.912759 0.031450 -10.542184 3.690563 -3.077380 12.046558 -9.878575 -56.916608 2.310982 -24.184827 -0.087086 -0.028311 -46.079900 14.679640 -7.442398 -2.861394 -17.958585 5.926684 18.088103 -59.963182 -1.068751 2.251897 13.843840 14.701962 5.320458 62.022075 9.494549 1.428836 -0.854518 -0.228389 18.293432 1.468395 2.379432 0.583157 16.910309 2.484685 -17.717241 50.185529 -6.131148 -0.418614 19.774280 14.167238 0.993967 1.124892 40.356301 -1.773405 -4.840067 10.015690 5.103512 1.691746 -17.321849 -1.937226 6.809608 -21.633280 -13.188832 0.162921 28.129526 -0.067334 -0.973705 -5.675138 -8.385481 -1.381522 -1.530431 1.009473
-0.070913 0.957877 0.082302 -10.398310 -0.752827 -4.729208 2.468927 0.658428 -0.252233 -0.071281 -4.791884 -2.563657 4.815718 11.942811 -4.147972 3.164458 4.306121 0.826846 -0.939961 -3.608396 -0.273341 -0.768006 -13.257250 -0.292784 0.020447 0.002872 -0.081331 -0.013618 -10.527782 -3.887405 0.029577 -10.546828 3.709960 -4.140636 12.574384 -9.194355 -57.528931 3.443037 -20.870811 0.020083 -0.189761 -42.776027 14.596081 -8.104198 -2.327102 -17.848599 5.886498 18.058201 -59.846878 -1.073700 2.319320 12.072410 14.900115 6.416157 62.486486 10.406863 5.069593 -0.870047 -0.280739 19.122442 0.529721 0.259894 1.337626 17.205556 2.434747 -17.734115 50.421867 -6.076398 -0.415685 20.379587 7.971931 1.258583 1.576110 52.199784 -2.031103 -4.902226 10.761257 6.626673 1.972991 -7.609043 -2.080796 9.317725 -17.518607 -12.208392 0.118682 26.549524 -0.136423 -1.552090 -7.682091 -7.783607 -1.380778 -1.525541 1.020451
-0.084454 0.963678 0.117528 -10.451880 -1.213723 -5.938270 2.951016 1.454116 -0.072346 0.117311 -4.461710 -2.002191 4.472519 12.200068 -3.811650 1.931617 3.430187 1.297562 -0.847570 -3.588351 -0.058064 -1.308447 -15.335432 -0.050015 0.019457 0.019933 -0.090000 -0.015374 -10.516240 -3.900144 0.022480 -10.534758 3.704810 -5.780258 13.114939 -8.165245 -58.182089 4.890236 -18.028236 0.144655 -0.260172 -38.554246 14.149600 -9.139461 -1.640203 -17.721612 5.841769 18.102721 -59.813091 -1.081212 2.439036 10.589944 15.049231 7.546070 62.187533 11.157390 9.091158 -0.673685 -0.286734 20.309908 -0.938825 -1.804267 2.419648 17.357954 2.427872 -17.791491 50.411882 -6.080206 -0.465172 19.617845 1.391537 2.224452 1.681086 61.455724 -2.005242 -4.294255 6.355962 6.751112 1.998379 -5.796414 -2.096575 10.524195 -12.998700 -11.731087 0.044112 23.711011 -0.173638 -1.794691 -8.686516 -6.886458 -1.372704 -1.436767 0.982358
-0.095072 0.971474 0.152134 -9.681602 -1.662033 -7.128093 3.157456 2.188991 0.127773 0.181831 -4.088852 -1.370075 3.729346 12.425666 -3.353556 0.824626 2.736043 1.837606 -0.834643 -3.560945 0.091363 -1.817056 -17.142295 -0.044367 0.014681 0.036890 -0.098284 -0.027094 -10.510243 -3.912941 0.018631 -10.535609 3.700586 -7.394674 13.556855 -7.009633 -59.689793 5.813386 -15.237523 0.064938 -0.184297 -33.783613 13.108316 -10.908836 -0.638354 -17.657574 5.737713 18.106189 -59.810138 -1.143872 2.547096 8.944693 15.127058 8.763571 61.613541 11.729168 13.208747 -0.216266 -0.188750 21.723379 -2.383546 -2.932993 3.085168 17.340084 2.416037 -17.803200 50.181604 -6.156073 -0.571937 17.790857 -5.217669 3.840509 1.227819 66.831348 -1.457088 -3.689231 1.430223 5.919478 1.890368 -5.887754 -2.062992 10.594493 -8.206944 -11.343487 -0.000702 19.937596 -0.170483 -1.715747 -8.959471 -6.152143 -1.368924 -1.341586 0.942699
-0.103934 0.979314 0.186884 -8.345677 -2.075761 -8.264077 3.132964 2.894018 0.338642 0.193665 -3.741903 -0.679933 2.734859 12.554838 -2.774804 -0.309030 2.212626 2.381030 -0.829220 -3.552571 0.198967 -2.182506 -18.687664 -0.217609 0.015027 0.040456 -0.095763 -0.040787 -10.522433 -3.914565 0.031419 -10.556932 3.706744 -8.951830 14.035365 -5.848781 -61.479506 6.321493 -12.392892 -0.138444 -0.094578 -29.063582 11.205049 -13.181950 0.652346 -17.696625 5.606918 17.959236 -59.961192 -1.277069 2.579217 6.843708 14.992279 10.166570 61.138014 12.296693 16.833812 0.341302 -0.046884 23.604163 -3.261610 -3.627156 3.510691 17.223595 2.459420 -17.811160 49.958106 -6.254398 -0.721695 15.460355 -11.529508 6.087585 0.365613 68.229729 -0.485501 -3.132782 -2.255822 5.148287 1.741520 -6.315089 -2.011694 9.847333 -3.309305 -10.772133 -0.005295 15.579904 -0.178695 -1.390460 -8.816796 -5.641479 -1.370396 -1.356319 0.912957
-0.111971 0.985191 0.222368 -6.701318 -2.392426 -9.206878 2.889709 3.443041 0.524599 0.183675 -3.485270 0.051232 1.673657 12.679141 -2.155721 -1.391832 1.833482 2.836820 -0.796349 -3.593603 0.120734 -2.418627 -19.952916 -0.540969 0.016583 0.035308 -0.090590 -0.060252 -10.533932 -3.911031 0.053639 -10.583326 3.711684 -10.481443 14.616712 -4.756993 -62.874071 6.986095 -9.389761 -0.346358 -0.055334 -25.417283 8.205406 -14.906842 1.574410 -17.783348 5.616637 17.780925 -60.277103 -1.318867 2.543103 4.568861 14.688955 11.588534 60.560940 12.942903 19.667321 0.733088 0.107695 26.133723 -3.379290 -4.517515 4.105116 17.070261 2.552234 -17.819150 49.858893 -6.262149 -0.820874 13.099214 -17.138705 8.764346 -0.270636 65.738539 0.311482 -2.796039 -4.733176 4.306132 1.616904 -6.823521 -1.940474 8.588144 1.295117 -10.022822 -0.001579 11.328776 -0.178687 -0.912619 -8.582335 -5.305822 -1.374996 -1.456663 0.887842
-0.119301 0.987840 0.258529 -5.094762 -2.548942 -9.884311 2.572371 3.774615 0.617850 0.157823 -3.339553 0.800119 0.727435 12.867640 -1.493532 -2.327143 1.557979 3.158293 -0.782371 -3.657730 -0.112709 -2.575498 -20.953640 -1.027473 0.023037 0.035249 -0.073216 -0.082289 -10.507827 -3.888956 0.092854 -10.573437 3.722081 -12.038748 15.190898 -3.585112 -63.707659 8.262124 -6.159418 -0.554331 -0.039319 -23.540520 4.896818 -16.080988 1.749703 -17.898677 5.724065 17.760350 -60.645645 -1.220955 2.530745 2.600336 14.409053 12.798854 59.574825 13.372823 21.824081 0.958326 0.266325 29.095923 -3.254517 -5.866188 4.996978 16.948816 2.655094 -17.853073 49.917530 -6.192649 -0.818957 11.123465 -21.969786 11.501775 -0.368253 59.860709 0.572475 -3.397625 -5.825864 2.618994 1.564553 -7.270918 -1.893900 7.232110 5.494775 -9.167782 -0.001331 7.600807 -0.132963 -0.373309 -8.516586 -5.254396 -1.382163 -1.610459 0.864223
-0.126108 0.986576 0.296418 -3.972910 -2.604727 -10.444174 2.451490 3.946934 0.613879 0.149979 -3.283635 1.467898 0.059937 13.121353 -0.734675 -3.149476 1.425692 3.383898 -0.775905 -3.696535 -0.323335 -2.717584 -21.866667 -1.623280 0.029358 0.045013 -0.048965 -0.108898 -10.453465 -3.859721 0.139047 -10.527420 3.741237 -13.558664 15.661179 -2.263705 -64.417961 9.795343 -2.898888 -0.672980 -0.029387 -22.980283 2.277289 -17.108753 1.297024 -17.899377 5.844863 17.767809 -60.782244 -1.086353 2.562391 1.046920 14.195417 13.739317 58.103698 13.773571 23.532378 1.037592 0.365484 31.982313 -3.294147 -7.309381 5.785897 16.879644 2.709679 -17.882937 49.926251 -6.133627 -0.760756 9.825173 -25.752366 13.804795 -0.226760 51.694012 0.568067 -4.184378 -5.336987 1.031310 1.553277 -7.493204 -1.915111 6.251698 9.295472 -8.315376 -0.013799 4.772917 -0.059607 0.067567 -8.827414 -5.362051 -1.392074 -1.760468 0.862510
-0.132817 0.981606 0.336175 -3.474746 -2.583427 -11.005941 2.614650 4.010106 0.566884 0.179657 -3.289848 1.992968 -0.261613 13.361753 0.099860 -3.950336 1.501584 3.565782 -0.754280 -3.715947 -0.477974 -2.838368 -22.780361 -2.178678 0.032843 0.058382 -0.035383 -0.133390 -10.416134 -3.845124 0.172912 -10.482093 3.755350 -14.907629 16.024897 -0.848889 -65.415850 11.068858 0.240122 -0.587083 -0.075518 -22.814148 0.673453 -17.779205 0.565959 -17.846878 5.958002 17.798259 -60.783181 -1.044105 2.604354 -0.209800 14.029061 14.475063 56.316115 14.208264 24.987522 0.975741 0.403913 34.458504 -3.299656 -8.331851 6.205602 16.841804 2.699930 -17.874912 49.905935 -6.123629 -0.739995 9.098238 -28.305053 15.336573 -0.111554 41.744951 0.618506 -4.344432 -3.864777 0.524107 1.541076 -7.291919 -1.933381 5.772681 12.715244 -7.510874 -0.044118 3.023148 -0.007080 0.359173 -9.585523 -5.447269 -1.398561 -1.909809 0.918641
-0.138112 0.973778 0.377133 -3.514481 -2.495749 -11.817175 2.995889 4.039993 0.603410 0.261487 -3.346776 2.322902 -0.295534 13.522858 0.949571 -4.705592 1.624953 3.779901 -0.745032 -3.717046 -0.639426 -2.799417 -23.627030 -2.393255 0.031785 0.073151 -0.037255 -0.157023 -10.424666 -3.858579 0.190263 -10.460467 3.767500 -16.105827 16.293760 0.581296 -66.728640 11.625260 3.170937 -0.361357 -0.160001 -22.580005 -0.056048 -18.107579 -0.045835 -17.793473 6.066355 17.847211 -60.796220 -1.041566 2.619917 -1.216000 13.836891 15.118719 54.479254 14.629935 26.302740 0.893551 0.438286 36.176297 -3.228400 -8.514013 6.342292 16.822057 2.652564 -17.818346 49.845975 -6.145834 -0.777445 8.759823 -29.466712 15.777346 -0.072919 30.187870 0.695012 -3.855966 -2.635977 1.347436 1.552879 -6.613122 -1.935160 5.575556 15.837327 -6.717250 -0.075658 2.217094 -0.026598 0.753491 -10.611173 -5.166388 -1.400139 -2.288548 1.002303
-0.142200 0.964624 0.420892 -3.860489 -2.345174 -13.004110 3.435915 3.984496 0.648763 0.369008 -3.425467 2.662286 -0.050161 13.654967 1.558038 -5.314830 1.652992 4.001702 -0.766973 -3.628542 -0.678494 -2.650680 -24.538461 -2.197459 0.046805 0.094253 0.019736 -0.141756 -10.445052 -3.824354 0.221835 -10.454044 3.848029 -17.321832 16.565267 1.991709 -68.106781 11.459868 5.642291 -0.075755 -0.241336 -21.923298 -0.417397 -18.281455 -0.381523 -17.919976 6.089088 17.959646 -61.060177 -1.033009 2.556401 -1.997577 13.541486 15.782133 52.890262 15.007704 27.528638 0.808270 0.509642 36.853778 -3.169918 -8.067151 6.263983 16.811382 2.611213 -17.838597 49.979466 -6.185975 -0.920416 8.808187 -29.578185 14.929705 -0.068785 18.436111 0.579594 -2.725728 -2.227568 3.068988 1.515166 -6.023951 -2.012786 5.287889 18.836595 -6.217003 -0.074039 1.993688 -0.087693 1.457779 -11.644050 -4.210191 -1.406631 -2.904667 0.972230
-0.145124 0.955653 0.467112 -4.144007 -2.023101 -14.439895 3.728289 3.682495 0.717253 0.473307 -3.527154 2.951931 0.290417 13.853685 1.791474 -5.823964 1.463412 4.186111 -0.695161 -3.634539 -0.412996 -2.302954 -25.194166 -1.638420 0.036821 0.101030 -0.012037 -0.170311 -10.434263 -3.861023 0.215854 -10.416410 3.821107 -18.623500 16.497863 3.057976 -69.234353 10.849105 7.623383 0.017682 -0.262909 -20.266043 -1.086512 -17.967019 -0.434942 -18.128643 6.023629 18.099714 -61.356362 -1.058073 2.545625 -2.287561 13.331371 16.519519 51.448574 15.342740 28.882585 0.669963 0.534781 36.151309 -2.991021 -7.333446 6.113001 16.670417 2.637136 -17.833054 50.013472 -6.161645 -0.887186 9.247851 -29.544368 13.757125 -0.012108 9.989401 0.405536 -2.136987 -1.894879 4.684959 1.450370 -5.978244 -2.095155 4.545498 21.525677 -5.962792 -0.047908 2.148426 -0.057918 2.753613 -11.977023 -2.472917 -1.384746 -4.155516 0.908666
-0.147683 0.947684 0.514852 -4.060250 -1.680488 -15.767296 3.737291 3.257051 0.802749 0.549780 -3.672135 3.193626 0.490013 14.028130 1.739204 -6.006349 1.104186 4.171939 -0.549026 -3.654994 -0.046188 -1.824558 -25.498367 -0.862631 0.019577 0.097443 -0.072214 -0.187301 -10.412553 -3.917177 0.176201 -10.382360 3.756573 -19.875583 16.293877 3.547629 -69.787126 10.244914 8.743331 -0.231676 -0.159477 -17.532118 -2.083991 -16.612004 0.240378 -18.269502 6.001163 18.259328 -61.424737 -0.965869 2.528323 -2.065433 13.135782 16.918770 50.649588 15.791507 29.993157 0.401069 0.516171 34.627477 -2.735522 -6.267584 5.890998 16.660176 2.618112 -17.829801 50.057939 -6.169869 -0.851531 9.517465 -29.777075 13.369151 0.059507 7.371650 0.300955 -1.983283 -2.032915 5.494550 1.431853 -6.080699 -2.111732 3.148201 23.976986 -5.942672 -0.020800 2.611313 0.060465 4.192626 -11.395636 -0.294399 -1.344895 -6.253977 0.841331
-0.149800 0.941684 0.567057 -3.185061 -1.276999 -16.777897 3.164599 2.518607 0.846709 0.555383 -3.947835 3.303225 0.384625 14.081122 1.649665 -5.524153 0.688551 4.010826 -0.386209 -3.687458 0.600270 -1.444356 -25.205249 -0.202635 0.011543 0.095989 -0.081362 -0.179368 -10.422324 -3.922794 0.150872 -10.386088 3.744877 -21.197772 16.068396 3.480958 -69.400164 9.086328 8.985521 -0.661356 0.000386 -14.219983 -3.016426 -13.604075 2.058667 -18.276277 6.047404 18.197560 -61.388081 -0.844442 2.495647 -0.873376 13.069230 16.926928 50.464868 16.220159 29.865149 0.048213 0.354877 33.487782 -2.448883 -5.302420 5.408756 16.810160 2.498069 -17.679664 49.938761 -6.169289 -0.762229 8.954085 -30.209890 13.818802 0.006981 10.292721 0.248913 -0.968393 -1.552237 5.254306 1.512257 -6.708297 -2.061685 0.684115 25.872373 -5.814365 0.065879 3.649043 0.214600 5.395125 -9.545255 1.809475 -1.303509 -9.988706 0.815877
-0.151783 0.940231 0.624043 -1.754127 -0.951883 -17.208763 2.206700 1.539851 0.896966 0.502269 -4.379880 3.250627 0.119445 14.157630 1.429184 -4.683270 0.379901 3.791713 -0.225686 -3.753273 1.011031 -0.984341 -24.688181 0.359769 0.025098 0.082350 -0.071425 -0.170415 -10.449240 -3.913180 0.175192 -10.410390 3.755192 -22.808986 15.517307 2.811281 -67.959703 8.063852 8.804193 -1.052232 0.094489 -11.137650 -3.713535 -11.010191 3.591616 -18.241063 6.197749 18.297526 -61.072885 -0.736868 2.441862 1.691351 13.114659 16.231648 50.554930 16.223926 28.149665 -0.086236 0.323165 32.933736 -2.125432 -4.064904 5.207835 16.758229 2.566634 -17.771939 50.153772 -6.189245 -0.841104 7.511772 -30.844333 14.238996 -0.039132 15.610164 0.205595 0.079215 2.354714 4.032167 1.576156 -7.250625 -1.987129 -2.300206 27.072354 -5.483700 0.080873 5.678638 0.392674 5.802131 -6.055061 3.103444 -1.241852 -16.020448 0.808918
-0.153835 0.942400 0.683329 -0.326492 -0.997835 -16.860117 1.408905 0.726063 0.826626 0.361353 -4.773935 3.113837 -0.443016 14.088146 1.144594 -3.500112 0.468969 3.386021 -0.239886 -3.744493 0.942877 -0.608492 -24.506912 0.832324 0.037844 0.064058 -0.047952 -0.149299 -10.419868 -3.880606 0.192253 -10.411228 3.768888 -23.187825 15.365035 1.677131 -66.803218 7.554201 7.531756 -1.067309 0.128508 -9.110108 -3.875137 -9.398015 4.634719 -18.142660 6.278518 18.120526 -60.770365 -0.800307 2.422234 4.243515 13.497287 14.988060 52.225084 15.210500 25.191675 -0.121998 0.320367 32.847642 -1.968845 -2.855705 5.280451 16.771301 2.557106 -17.830776 50.289793 -6.219828 -0.800038 5.545655 -31.058798 14.004752 -0.010566 21.305553 0.167274 0.752781 4.176373 2.671791 1.609715 -6.084808 -1.907955 -5.029719 26.855272 -5.287085 -0.123825 10.643156 0.669716 5.376933 -0.110817 3.368282 -1.191497 -24.208404 0.837542
-0.156164 0.947265 0.742929 0.812682 -1.584917 -15.787097 0.768311 0.336243 0.651027 0.163924 -4.993070 2.835566 -1.124448 13.937788 0.848028 -2.029802 0.962316 2.962572 -0.474807 -3.689421 0.634247 -0.409986 -24.286859 0.854752 0.059573 0.074004 0.012731 -0.098050 -10.379589 -3.807465 0.207363 -10.376407 3.817257 -21.740843 15.693420 0.240885 -66.656775 8.287117 4.953663 -0.596285 0.131326 -8.785662 -3.282096 -8.893622 5.203283 -18.314562 6.052927 17.927329 -60.679876 -0.993753 2.343341 5.772820 13.896366 13.607467 55.512114 13.627758 21.715411 -0.290205 0.211272 32.419469 -1.696006 -2.399780 5.199108 16.923881 2.535813 -17.649690 50.581947 -6.075937 -0.666442 3.050992 -29.285164 12.895186 -0.061576 25.027578 0.158448 1.323362 2.773928 2.003712 1.583785 -3.703418 -1.826575 -7.154518 24.327716 -5.112562 -0.385488 19.767047 0.972638 3.944167 9.034789 2.078560 -1.182105 -31.053478 0.764888
-0.158709 0.954976 0.800106 2.092891 -2.575797 -15.026100 -0.114103 0.515437 0.469330 -0.066068 -4.845385 2.571770 -1.746935 13.614553 0.682379 -0.990291 1.219949 2.510202 -0.605488 -3.621659 0.444037 -0.355443 -23.852669 0.853825 0.066221 0.085448 0.044193 -0.068151 -10.335988 -3.775272 0.203161 -10.343812 3.849065 -19.763323 15.832680 -1.268934 -66.132876 9.914747 1.520784 -0.232769 0.164172 -10.269363 -2.851811 -9.120809 4.751270 -18.495276 5.704232 17.875556 -60.562819 -1.235109 2.253459 6.688370 14.106428 12.609530 58.418471 12.234110 18.575106 -0.411532 0.082951 31.263480 -1.064016 -2.758817 4.873227 17.161056 2.471232 -17.577296 50.651709 -6.048008 -0.573648 0.103081 -25.430525 11.953595 -0.078837 25.824993 0.121029 1.650137 -0.561168 1.760940 1.556926 -3.039537 -1.847797 -9.591614 18.456909 -5.070134 -0.686259 33.723125 1.157718 2.847225 18.599699 -0.383576 -1.151367 -21.449645 0.718157
-0.161122 0.963396 0.851389 3.548928 -3.639653 -14.910648 -1.183974 1.015754 0.324604 -0.327375 -4.573979 2.407771 -2.312260 13.361771 0.311185 -0.450939 1.290067 2.471401 -0.480640 -3.622495 0.565294 -0.352283 -23.707113 0.957544 0.089272 0.111044 0.124962 -0.035850 -10.319014 -3.690704 0.245173 -10.306135 3.931373 -18.029869 15.569813 -2.632526 -64.292677 12.020449 -2.628436 -0.119755 0.170824 -12.876384 -2.327440 -10.157399 3.650040 -18.610750 5.408310 18.147853 -60.579867 -1.398195 2.144539 7.452877 14.128529 12.141034 59.901063 11.998150 16.423595 -0.417428 -0.011878 29.101631 -0.248838 -3.116174 4.481199 17.368459 2.422564 -17.549830 50.424563 -5.975339 -0.606126 -2.875518 -20.304623 11.422068 -0.056470 23.845095 0.177160 1.541854 -3.220969 1.895474 1.542974 -2.959415 -1.921600 -12.077493 10.729779 -5.058638 -0.718812 48.305398 1.003325 1.036685 24.029407 -1.989256 -1.257035 -6.605155 0.899498
-0.164784 0.973586 0.897163 3.862296 -4.395718 -14.903758 -1.693640 1.412240 0.169069 -0.528533 -4.363010 1.914098 -2.266891 13.463669 -0.261254 -0.046809 1.403089 2.647597 -0.430508 -3.628360 0.847902 -0.364850 -23.697030 1.516625 0.089042 0.127258 0.129103 -0.023093 -10.347622 -3.694622 0.235201 -10.332519 3.947169 -16.898667 15.014884 -3.752017 -60.965557 13.656047 -7.538098 -0.150238 0.117066 -14.837465 -0.999792 -10.107273 2.685664 -18.667064 5.176082 18.346739 -60.345323 -1.553711 2.174155 8.284588 14.125550 11.802340 59.935909 12.902086 15.208030 -0.254005 -0.063224 26.241364 0.501845 -3.276077 4.377070 17.333636 2.406317 -17.567735 50.320716 -5.995391 -0.670551 -4.513582 -14.633341 10.831435 0.022182 20.230242 0.151832 1.164737 -4.874621 2.182843 1.520901 -2.821730 -1.983641 -12.677865 3.198477 -5.740452 -0.507866 59.432307 0.730876 -0.248559 18.862030 -1.867428 -1.287173 -5.316928 0.920720
-0.169487 0.984143 0.940528 2.701666 -4.842586 -14.578180 -1.462860 1.789709 -0.076295 -0.543774 -4.188063 1.142458 -1.549879 13.640687 -0.979314 0.323829 1.746783 2.783852 -0.426761 -3.622518 1.085740 -0.431111 -23.226969 2.170130 0.074036 0.118843 0.098535 -0.020053 -10.388840 -3.732289 0.195784 -10.397565 3.925805 -15.103346 14.513272 -5.165513 -57.841762 13.626041 -12.823227 -0.329418 0.061169 -16.125891 0.745056 -8.688860 2.783690 -18.614932 5.203758 18.467937 -60.314484 -1.496397 2.245771 8.549571 14.164853 11.311468 59.873434 14.041258 14.307924 0.023443 -0.028843 23.398347 1.372083 -2.602758 3.980783 17.272544 2.397138 -17.590803 50.288195 -5.970971 -0.599427 -4.414383 -8.657589 10.181618 0.042137 15.855624 0.050390 0.902583 -5.790450 2.247836 1.514214 -2.744340 -1.990709 -10.912745 -3.566895 -6.623660 -0.049491 65.348519 0.212780 -1.047141 13.776077 -1.877192 -1.257794 -5.270059 0.907575
-0.175525 0.992269 0.984422 1.005448 -5.192268 -13.772775 -1.075628 2.262702 -0.338010 -0.479653 -4.003332 0.216119 -0.553159 13.630607 -1.894110 0.882151 2.327717 2.685921 -0.337514 -3.637959 1.336176 -0.567408 -22.439145 2.824912 0.053097 0.106638 0.059198 -0.023459 -10.438021 -3.771211 0.146471 -10.456892 3.884933 -12.116346 13.908524 -7.003923 -56.076218 11.797093 -17.297824 -0.398601 0.016884 -18.038029 2.034446 -7.800358 3.331483 -18.389853 5.484372 18.639168 -60.360936 -1.431900 2.403018 8.428362 14.124336 10.626964 60.251431 14.763648 12.997273 0.122380 0.009380 21.535431 2.382494 -1.342684 3.240380 17.207231 2.374377 -17.633971 50.125183 -6.026126 -0.500527 -3.505070 -2.637487 9.600114 0.031109 11.260964 -0.074784 0.598536 -6.319768 2.044150 1.510510 -2.680112 -1.953939 -8.232591 -9.397192 -7.373584 0.486576 66.628097 -0.376547 -0.986405 10.491166 -1.699954 -1.222906 -5.496476 0.866419
-0.182160 0.996837 1.027586 -0.454605 -5.369242 -12.610254 -0.838186 2.614570 -0.525730 -0.454796 -3.889726 -0.736429 0.328323 13.630892 -2.832810 1.768099 2.822950 2.344210 -0.231228 -3.649322 1.700606 -0.742096 -21.663790 3.152803 0.037940 0.099965 0.024324 -0.026915 -10.473204 -3.799897 0.109236 -10.488068 3.841952 -9.011044 13.120940 -8.906084 -54.627620 8.846503 -20.732725 -0.469552 0.032787 -21.156200 3.205183 -8.468802 3.400804 -18.091265 5.842353 18.837284 -60.362746 -1.381871 2.596796 8.959143 14.059560 9.582092 60.312541 14.562942 11.010989 0.003879 -0.004715 21.225697 2.854240 -0.463463 2.862809 17.170425 2.396894 -17.687724 49.952550 -6.124211 -0.478575 -2.478673 2.844959 9.261573 0.019851 7.133895 -0.144837 0.027827 -6.879744 1.324008 1.521970 -2.589685 -1.888329 -5.808056 -14.603799 -7.948370 0.729634 64.269080 -0.735192 -0.339950 8.118394 -1.545533 -1.237194 -5.796500 0.827304
-0.189665 0.997549 1.070348 -1.448038 -5.330709 -11.257322 -0.802355 2.746827 -0.629043 -0.500341 -3.832344 -1.576358 1.020931 13.728541 -3.699884 2.842429 3.114069 1.893699 -0.201729 -3.655859 1.981659 -0.832514 -21.286506 3.189907 0.028426 0.094390 -0.013262 -0.036717 -10.476916 -3.828018 0.087468 -10.480034 3.794123 -6.234063 12.240402 -10.563464 -53.061356 5.559055 -23.569993 -0.582941 0.155749 -24.961088 4.813805 -10.564569 2.917300 -17.844901 6.161423 19.058817 -60.272591 -1.290952 2.757832 10.133775 14.031393 8.271670 60.004835 13.128027 8.694766 -0.217109 -0.094547 22.081970 2.377624 -0.926745 3.022837 17.198539 2.444957 -17.768004 49.894579 -6.229111 -0.518268 -1.536498 7.343341 9.240381 0.002920 4.129423 -0.140158 -0.777790 -7.721033 0.030376 1.550557 -2.502280 -1.833206 -3.948686 -19.039461 -8.155112 0.559432 58.473760 -0.710522 0.675034 6.452914 -1.839102 -1.283024 -6.010726 0.829417
-0.197831 0.994489 1.112632 -1.916336 -5.239849 -9.915629 -1.034136 2.725825 -0.636019 -0.612061 -3.813456 -2.336536 1.449446 13.969825 -4.409420 4.078940 3.294695 1.339916 -0.282872 -3.657300 2.117999 -0.804080 -21.373418 3.075270 0.023707 0.096855 -0.034035 -0.056228 -10.451941 -3.846418 0.090849 -10.445793 3.770977 -3.500202 11.445746 -11.950257 -51.449488 2.530545 -26.300683 -0.594831 0.335449 -28.763305 6.764660 -12.894777 2.412095 -17.728032 6.400236 19.177508 -60.198696 -1.143242 2.859039 11.381994 14.060152 6.952363 59.658410 10.774355 6.556239 -0.330572 -0.224245 23.275543 1.232922 -2.455559 3.358521 17.283398 2.476230 -17.876894 50.013440 -6.310705 -0.574283 -0.839565 10.843800 9.424119 -0.035550 2.744916 -0.112627 -1.623161 -9.221303 -1.558123 1.578657 -2.371451 -1.812997 -2.747243 -22.090339 -7.955459 0.228563 49.141983 -0.414891 1.755991 5.764215 -2.811849 -1.318770 -6.290005 0.878156
-0.206795 0.988244 1.155799 -1.913231 -5.220766 -8.698805 -1.462512 2.635746 -0.606751 -0.757028 -3.809366 -2.979919 1.539601 14.271803 -4.856348 5.284749 3.502323 0.674221 -0.353404 -3.638140 2.039828 -0.667052 -21.705035 2.958667 0.012602 0.113156 -0.054913 -0.082629 -10.422518 -3.868013 0.088577 -10.413620 3.751148 -0.718703 10.887766 -13.076829 -49.987551 -0.044920 -29.110831 -0.438376 0.403592 -31.944893 8.559591 -14.263556 2.140029 -17.735971 6.434258 19.042533 -60.313161 -1.075623 2.891234 12.168177 14.095167 5.847210 59.620925 8.333529 4.873916 -0.311845 -0.287480 24.056956 0.053100 -3.803253 3.361284 17.363593 2.451639 -17.861217 50.232723 -6.314579 -0.633081 -0.468892 13.894354 9.560005 -0.083597 2.374824 -0.076856 -2.353774 -11.160884 -2.926955 1.593266 -2.211395 -1.833733 -2.243503 -23.236685 -7.792334 0.078581 36.143251 -0.123388 2.211786 6.635496 -4.109173 -1.333888 -6.399782 0.965471
-0.216711 0.979308 1.200831 -1.428705 -5.315663 -7.626998 -2.079820 2.565965 -0.586531 -0.955862 -3.904181 -3.326277 1.390379 14.512404 -5.128909 6.287974 3.863256 0.070558 -0.290193 -3.603016 1.698164 -0.564650 -22.180982 2.793544 -0.004557 0.127606 -0.073218 -0.110837 -10.456396 -3.890529 0.076279 -10.454823 3.736760 2.047110 10.520046 -13.939746 -49.132717 -2.376191 -31.965188 -0.402188 0.320802 -34.407317 9.809899 -14.198769 2.065483 -17.779193 6.357135 18.717542 -60.614950 -1.161817 2.830068 12.293835 14.166781 5.110869 60.135623 6.143703 3.511954 -0.315472 -0.263056 24.206632 -0.619173 -4.119955 2.973320 17.402156 2.477672 -17.782922 50.629062 -6.210233 -0.663024 -0.484520 16.975014 9.735599 -0.087833 2.344826 -0.042136 -3.130790 -13.098383 -4.233772 1.585321 -2.419538 -1.877849 -2.491050 -22.521626 -8.174911 0.184808 20.353796 -0.047982 2.128739 7.392554 -4.437613 -1.325986 -5.769578 1.019739
-0.227652 0.968578 1.248086 -0.619117 -5.204042 -6.751794 -2.761792 2.324460 -0.616691 -1.215011 -4.101151 -3.400245 1.089161 14.571003 -5.254266 7.154028 4.107799 -0.350934 -0.268371 -3.615981 1.306417 -0.658852 -22.129508 2.310502 -0.000899 0.104096 -0.057311 -0.098671 -10.557155 -3.881004 0.077603 -10.565460 3.761304 4.189442 9.658005 -14.369201 -48.620999 -3.740312 -34.146613 0.020033 0.141375 -36.751034 10.307088 -13.615087 2.517652 -17.803999 6.337251 18.480740 -60.702541 -1.465299 2.748669 12.371260 13.865176 4.724210 60.739895 4.108040 1.844208 -0.137998 -0.124883 23.971092 -0.829244 -3.539934 2.178068 17.226446 2.539387 -17.651436 50.611823 -6.098261 -0.722725 -0.707325 20.105085 10.145372 -0.029104 2.118838 -0.043076 -3.954465 -14.672007 -5.811548 1.624267 -3.023664 -1.822940 -3.030418 -21.484304 -8.541859 0.222460 5.301412 -0.106837 3.456228 5.343878 -4.093837 -1.249531 -5.314166 1.071234
-0.241027 0.958311 1.296981 -0.170305 -4.897433 -6.331613 -3.106653 1.962358 -0.597972 -1.437458 -4.248397 -3.465994 0.823189 14.552126 -5.052878 7.609766 4.187613 -0.480836 -0.203593 -3.646150 1.115207 -0.737854 -21.924420 2.175302 0.000725 0.077085 -0.067935 -0.120146 -10.585794 -3.887980 0.097983 -10.573593 3.750255 4.724208 8.853840 -14.244202 -48.948656 -5.652876 -35.802333 0.084622 0.049076 -39.358913 10.857379 -12.830010 2.662434 -17.800685 6.365454 18.308066 -61.001927 -1.316520 2.602977 13.092520 13.635181 4.709288 60.715471 2.409621 0.647703 -0.066327 -0.128622 23.239692 -0.791725 -3.658259 1.478038 17.073530 2.551544 -17.571691 50.258835 -6.203791 -0.658909 -0.395887 23.106989 10.785669 -0.068204 2.072437 -0.217681 -5.102040 -15.400701 -7.105394 1.637642 -4.230433 -1.752674 -3.207874 -23.413097 -9.568919 0.055706 0.235883 -0.021868 6.421636 -0.314187 -3.915255 -1.190142 -5.398084 1.043349
-0.255421 0.949747 1.347247 -0.397722 -4.493618 -5.998795 -2.983259 1.426110 -0.580308 -1.491610 -4.390405 -3.493610 0.792791 14.587828 -4.955435 7.644572 3.998500 -0.522757 -0.329801 -3.632361 1.173050 -0.820713 -21.493777 1.869835 -0.008675 0.073501 -0.083691 -0.140493 -10.524384 -3.902032 0.091879 -10.478973 3.733592 4.621459 8.523768 -13.990667 -51.086425 -7.892328 -36.656367 0.017342 0.240727 -42.975477 12.154650 -12.545421 2.305985 -18.094516 6.271024 18.109680 -61.269692 -1.152158 2.531093 13.958130 13.640160 4.810616 60.695130 1.020430 0.234217 -0.245928 -0.175955 21.918171 -0.933883 -3.979079 1.065123 17.049996 2.582216 -17.526198 50.071643 -6.182882 -0.453197 0.880492 25.643227 11.126445 -0.007577 3.005584 -0.536501 -6.231179 -15.029985 -8.143884 1.597732 -6.671714 -1.762499 -2.450015 -24.107207 -11.577201 0.017812 0.172081 0.039162 8.325751 -2.968863 -3.620225 -1.133089 -5.860724 1.063093
-0.271962 0.944417 1.399295 -2.060394 -3.493275 -5.920864 -1.705545 0.397172 -0.567486 -1.429227 -4.737508 -3.390171 1.220413 14.713687 -5.000181 6.973259 3.666688 -0.181226 -0.425965 -3.583512 0.719895 -0.997004 -20.297095 1.495606 -0.018853 0.072593 -0.076721 -0.157689 -10.437126 -3.897155 0.095140 -10.404665 3.739138 3.011844 8.648783 -13.538479 -52.713380 -8.798508 -35.805966 0.368923 0.017533 -47.887182 13.129533 -12.956822 1.781036 -18.195603 6.255487 18.059398 -61.038644 -1.143441 2.571336 15.135018 13.299223 4.781957 60.358878 0.569423 -0.052930 -0.330144 -0.160913 20.707671 -0.989295 -3.490386 0.616516 16.897212 2.608496 -17.415137 50.066771 -6.194800 -0.407049 4.288530 26.022222 11.459101 0.170253 7.275822 -0.884450 -7.030983 -13.741650 -9.436871 1.542315 -11.249170 -1.747321 0.094837 -24.061834 -12.773711 0.126205 4.073066 0.020779 7.606320 -0.462617 -3.378871 -1.131144 -6.847462 1.142450
-0.289721 0.942289 1.453041 -4.618539 -2.472830 -6.148258 0.058271 -0.512039 -0.544264 -1.209630 -5.163271 -3.402942 2.118864 14.775311 -5.046693 5.858805 3.428067 0.230889 -0.489652 -3.587674 0.929231 -1.399737 -19.160680 1.150832 -0.017614 0.048005 -0.065624 -0.157903 -10.442402 -3.904542 0.104773 -10.434591 3.764562 0.047489 9.115443 -12.569377 -53.645241 -8.978666 -33.506170 0.585706 -0.146380 -52.768276 13.673349 -13.338018 0.855426 -18.300120 6.149075 18.015994 -60.880391 -1.146071 2.580336 16.061013 13.415171 5.086733 60.027802 1.337410 0.221264 -0.479165 -0.227844 19.708539 -0.710738 -1.863820 0.155118 16.893227 2.616144 -17.456604 50.097467 -6.344866 -0.491191 9.148399 24.674482 10.979884 0.247560 14.803093 -0.973442 -7.034055 -10.202880 -9.795679 1.436680 -18.585123 -1.719612 3.640951 -25.409631 -11.882467 0.118342 10.811500 -0.101037 4.519975 4.965250 -3.854608 -1.229438 -6.025352 1.022517
-0.307160 0.943160 1.507827 -6.304176 -2.579407 -6.899387 0.994062 -0.644197 -0.495601 -0.869414 -5.239343 -3.469515 2.779824 14.628398 -4.725545 4.620070 3.710337 0.742805 -0.536964 -3.586215 1.044447 -1.510359 -19.225350 1.336765 -0.015767 0.055066 -0.078514 -0.137444 -10.483506 -3.937200 0.083085 -10.479115 3.767851 -1.659195 9.782277 -11.591412 -56.225594 -8.480008 -30.451412 0.760632 -0.374301 -55.807263 14.007689 -13.714969 0.049836 -18.378993 6.035321 17.858938 -60.650075 -1.050073 2.605082 14.855820 14.071061 5.805693 61.329706 4.034287 1.602210 -0.615639 -0.242883 18.777376 -0.222768 -0.743736 -0.248956 16.984251 2.602239 -17.626429 50.203854 -6.382974 -0.595074 12.459710 22.336441 9.331082 0.366846 25.246680 -1.029798 -5.528090 -3.344707 -8.445160 1.360917 -26.277487 -1.727275 6.171249 -25.332369 -10.732837 0.058891 17.311579 -0.143258 1.650001 5.258921 -3.888135 -1.295473 -4.229804 0.928114
-0.322356 0.947601 1.561071 -7.311278 -3.462706 -7.808557 1.584798 -0.151372 -0.294207 -0.489388 -5.075027 -3.250520 3.051667 14.348271 -4.368518 3.341967 4.229932 1.168987 -0.396876 -3.599215 0.729964 -1.445461 -19.548479 1.543042 -0.001342 0.075206 -0.043487 -0.102899 -10.434479 -3.874933 0.086779 -10.417803 3.772709 -2.458572 10.769627 -10.865148 -59.165916 -6.788628 -27.744918 0.827580 -0.905468 -55.564128 14.265840 -14.124942 -0.066871 -18.304387 5.912335 17.800993 -60.202069 -1.065452 2.609345 12.654668 14.668569 6.690438 63.120052 7.472051 3.415968 -0.586443 -0.107191 18.469646 0.521553 0.216288 -0.619576 17.062857 2.531469 -17.703818 50.202716 -6.349553 -0.531184 14.451635 17.958985 7.059172 0.612568 38.564822 -1.175615 -4.517041 6.991796 -6.751952 1.458880 -25.286440 -1.703111 7.760209 -22.861502 -10.249993 0.163961 21.232893 -0.179214 -1.434772 3.397734 -3.237757 -1.338474 -2.545420 0.888100
-0.336493 0.951931 1.610042 -8.263434 -4.321468 -8.050116 2.167193 0.478255 -0.235832 -0.118540 -4.844320 -2.763347 3.405526 14.189485 -4.281663 2.456620 4.427261 1.290307 -0.264591 -3.611870 0.733183 -1.533532 -19.590239 1.656879 0.006139 0.067646 -0.028098 -0.092221 -10.461519 -3.861676 0.091524 -10.426656 3.786309 -3.708918 11.344994 -10.151264 -60.724134 -3.768707 -25.554983 0.938271 -1.006244 -52.111387 13.901174 -14.369504 0.277738 -18.205891 5.877994 17.727014 -59.871931 -1.026932 2.491427 11.018015 14.911793 7.524948 63.520379 11.623289 5.251623 -0.522140 -0.058338 18.992907 1.158677 0.469844 -0.255093 17.080491 2.426808 -17.612706 50.199399 -6.225588 -0.501022 15.904397 11.645947 4.576149 1.109523 51.632645 -1.462737 -6.011902 14.999135 -4.554911 1.677526 -11.230947 -1.856154 9.129894 -19.272014 -10.298387 0.106770 22.997183 -0.113495 -2.894412 0.022007 -2.976109 -1.367349 -2.101462 0.892788
-0.348430 0.958184 1.655945 -8.890188 -4.920276 -7.938206 2.684960 0.903874 -0.128024 0.140846 -4.645129 -2.310329 3.640878 14.199360 -4.083359 1.992882 4.507590 1.301277 -0.246121 -3.613023 0.818656 -1.769677 -19.549192 1.477886 0.010950 0.062418 -0.033591 -0.079228 -10.472526 -3.861598 0.083904 -10.432636 3.777684 -5.363906 12.044360 -9.445014 -60.741079 0.546882 -24.292340 1.156893 -0.961517 -45.715648 12.409832 -14.745815 0.201693 -17.995405 5.873609 17.718083 -59.816841 -1.035051 2.461835 10.335211 14.978774 7.974013 62.143632 15.314079 7.554161 -0.180908 -0.035108 19.686545 1.394420 1.156011 0.354593 17.069428 2.362790 -17.497054 50.140584 -6.162633 -0.565243 16.172519 4.603079 2.918120 1.499708 62.165490 -1.756475 -6.235318 14.022654 -2.359693 1.800243 -6.314482 -1.951722 10.221492 -14.957191 -10.419095 0.014858 22.417544 -0.118215 -3.341289 -2.600980 -2.981883 -1.363521 -1.808283 0.902534
-0.359047 0.966258 1.700686 -8.778820 -5.512878 -7.882257 2.902734 1.226870 0.032758 0.216334 -4.439592 -1.807649 3.500098 14.266959 -3.728478 1.922783 4.668660 1.371781 -0.299562 -3.594714 0.767700 -2.022058 -19.293401 1.396460 0.004590 0.065383 -0.073852 -0.094161 -10.459248 -3.897062 0.070826 -10.425040 3.735233 -7.057959 12.777708 -8.741390 -59.909909 5.477505 -23.362093 1.100227 -0.653495 -37.497410 9.677528 -14.777976 -0.060287 -17.720604 5.852429 17.918178 -59.770343 -1.103099 2.558163 10.076904 15.076189 8.358256 59.855253 18.224283 10.273680 0.197711 0.040664 20.323755 1.283746 2.476322 0.725178 17.015212 2.328775 -17.469760 50.073161 -6.233133 -0.644297 15.199932 -2.447106 2.489840 1.163004 69.154799 -1.372297 -4.319357 8.417455 0.187085 1.808419 -5.749363 -1.964699 10.652161 -9.962386 -10.316643 -0.013070 19.939486 -0.153353 -3.392473 -4.237873 -3.204163 -1.357134 -1.520829 0.917557
-0.368651 0.974559 1.744829 -8.196916 -6.145323 -8.160102 2.946864 1.575156 0.232367 0.207247 -4.216026 -1.193651 3.076801 14.205694 -3.247883 1.868427 5.058206 1.506195 -0.314248 -3.577593 0.822120 -2.238100 -18.755075 1.256153 0.000685 0.065821 -0.100719 -0.108788 -10.446109 -3.918406 0.067875 -10.428434 3.704229 -8.731984 13.545632 -7.915227 -59.227558 10.171632 -22.279716 0.530530 -0.210532 -28.425056 6.369334 -13.691473 0.018956 -17.565917 5.779124 18.071839 -59.763897 -1.167916 2.648667 9.463893 15.066919 8.990625 57.701101 20.266978 12.922443 0.638561 0.143975 20.992785 1.250253 3.762205 0.846056 16.963242 2.290092 -17.520896 50.038765 -6.356329 -0.699586 13.510022 -8.971090 2.980648 0.156294 72.264817 -0.252394 -2.119295 3.351701 2.515128 1.777285 -5.882407 -1.957205 10.642708 -4.369999 -9.824214 -0.014615 16.102669 -0.163072 -3.256960 -5.201309 -3.560326 -1.352496 -1.378398 0.910219
-0.377316 0.981353 1.789974 -7.349893 -6.723636 -8.939870 2.868738 1.927662 0.434215 0.203104 -4.001003 -0.465139 2.487893 13.986725 -2.662001 1.543337 5.584869 1.705844 -0.264563 -3.570464 1.067588 -2.341270 -18.122386 1.074049 0.005945 0.065280 -0.084571 -0.108841 -10.442035 -3.895500 0.084463 -10.443261 3.714487 -10.479471 14.324636 -6.787768 -59.496759 13.677700 -20.221710 -0.075114 0.023401 -20.500694 3.481392 -11.456240 0.793847 -17.775045 5.648533 18.086253 -60.103922 -1.202908 2.668253 8.298688 14.853716 9.927832 56.282113 21.419221 15.105501 0.944785 0.256295 21.840923 1.503398 4.703051 0.862807 16.917226 2.274773 -17.593523 49.959157 -6.426725 -0.731257 11.559889 -14.417710 4.064906 -0.723554 71.546577 0.822847 -1.059076 -0.207854 3.570150 1.710115 -6.200623 -1.942530 10.253386 1.388391 -8.948096 -0.014941 11.665514 -0.181062 -2.885757 -5.691390 -3.817816 -1.354805 -1.389630 0.864887
-0.385114 0.985350 1.836024 -6.230806 -7.118256 -10.157814 2.645249 2.179750 0.610214 0.208605 -3.842126 0.336085 1.783822 13.749322 -1.907424 0.882808 6.006259 1.976044 -0.165331 -3.593859 1.284345 -2.311326 -17.521514 0.964940 0.013794 0.064888 -0.047261 -0.105871 -10.456795 -3.858203 0.110464 -10.475272 3.752119 -12.353119 14.997194 -5.250738 -60.751282 15.640887 -16.335534 -0.275468 0.040533 -15.779838 1.604271 -9.734523 1.639615 -18.141036 5.556808 18.087181 -60.501079 -1.157055 2.629168 6.829488 14.532549 11.028423 55.600418 21.487741 16.759797 1.034777 0.344208 23.051460 1.705438 5.114449 0.899236 16.931289 2.328403 -17.633994 49.960208 -6.375387 -0.780073 9.520015 -19.031839 5.710986 -0.844244 67.517345 1.149184 -1.144898 -2.310302 3.706532 1.649434 -6.447893 -1.934055 9.317142 6.865535 -7.932871 -0.010140 7.315953 -0.183023 -2.326964 -6.060065 -3.680630 -1.363989 -1.428027 0.819683
-0.392756 0.986248 1.882637 -5.066692 -7.216473 -11.689451 2.395911 2.251009 0.714532 0.228137 -3.789724 1.152223 1.113430 13.639669 -1.029845 -0.060298 6.177774 2.350122 -0.054333 -3.640152 1.375794 -2.238136 -17.130652 0.985134 0.019516 0.064956 -0.020674 -0.111010 -10.449603 -3.833226 0.135728 -10.483393 3.780436 -14.286848 15.441907 -3.426441 -62.440743 16.193330 -10.814643 -0.171894 -0.009312 -14.354530 0.796426 -10.249306 1.761126 -18.322127 5.574527 18.070151 -60.807189 -1.084442 2.561407 5.458696 14.228552 12.103307 55.166642 20.673016 18.046901 1.013688 0.401982 24.713165 1.608328 4.718120 1.054233 16.912922 2.413097 -17.656486 49.938353 -6.309259 -0.774918 7.818328 -22.832023 7.736946 -0.472869 60.528507 0.911115 -1.988566 -2.794854 3.372680 1.606363 -6.628454 -1.951499 7.976413 11.478044 -6.949734 -0.001606 4.009553 -0.161202 -1.705613 -6.590980 -3.156980 -1.378543 -1.541104 0.806361
-0.399571 0.983920 1.927990 -4.276047 -7.007468 -13.338552 2.341952 2.148002 0.724784 0.275552 -3.830203 1.880303 0.720718 13.725728 -0.160258 -1.215168 6.078689 2.794010 0.057883 -3.678989 1.456818 -2.246465 -17.056732 0.977437 0.023240 0.066541 -0.015651 -0.118578 -10.410244 -3.826187 0.150707 -10.455898 3.783285 -16.075874 15.655379 -1.589407 -64.067923 16.172726 -4.777938 0.005221 -0.067984 -14.508952 0.525082 -12.186920 1.278103 -18.341604 5.651361 18.032164 -60.975422 -1.101538 2.543068 4.340693 14.010325 12.986876 54.451373 19.650916 19.325935 0.895208 0.397697 26.724850 1.255127 3.859544 1.356091 16.905791 2.443893 -17.706768 49.902668 -6.268070 -0.754770 6.927516 -25.601578 10.015771 -0.117595 51.093450 0.632063 -3.020302 -1.948472 2.902865 1.555253 -6.833083 -1.974113 6.744052 14.991518 -6.069730 -0.005657 2.335955 -0.117622 -1.207070 -7.568570 -2.505414 -1.391727 -1.791846 0.845630
-0.406160 0.978381 1.974681 -4.062770 -6.644298 -14.889566 2.567903 2.013865 0.684009 0.339479 -3.932016 2.307745 0.688061 13.924484 0.668514 -2.447157 5.911535 3.237368 0.154863 -3.714984 1.508520 -2.334833 -17.251937 1.017564 0.025960 0.067128 -0.029297 -0.126862 -10.396580 -3.842524 0.156942 -10.436659 3.773699 -17.415615 15.802812 0.038241 -65.701169 16.112618 0.868927 0.068994 -0.141386 -14.756035 0.344541 -13.988313 0.743676 -18.229466 5.775746 17.913875 -61.014599 -1.087780 2.505181 3.352365 13.858663 13.684491 53.491808 18.829604 20.732891 0.694173 0.340177 28.738953 0.764547 3.040401 1.766188 16.899802 2.416970 -17.732546 49.787043 -6.265190 -0.739427 6.854587 -26.924321 12.533576 0.025144 39.252325 0.599254 -3.843594 -1.034942 2.679595 1.534249 -6.665886 -1.969029 5.960278 17.893916 -5.400621 -0.031320 1.800469 -0.086303 -0.778000 -8.756803 -1.674074 -1.396605 -2.276080 0.936652
-0.412643 0.969986 2.023330 -4.537142 -6.250990 -16.349750 3.100165 1.967684 0.599739 0.409848 -4.081130 2.461090 1.046988 14.170583 1.295654 -3.515289 5.751115 3.696312 0.147263 -3.672267 1.515430 -2.444010 -17.656405 1.210679 0.043135 0.072728 0.013389 -0.101453 -10.418748 -3.813347 0.177532 -10.439173 3.831928 -18.225318 16.106726 1.439496 -67.667321 16.103379 5.740019 0.105837 -0.205182 -14.539477 0.059601 -14.745140 0.600571 -18.154790 5.895891 17.828105 -61.067603 -0.926189 2.432323 2.379944 13.682980 14.274854 52.574601 18.326764 22.141874 0.438484 0.248050 30.522486 0.071292 2.545540 2.100832 16.959290 2.417744 -17.852071 49.928233 -6.275838 -0.860953 7.345381 -26.748275 14.910934 0.011199 25.544316 0.679540 -4.526658 -1.795014 2.889241 1.515234 -5.949985 -2.009501 5.752536 20.810043 -5.203624 -0.065027 1.725151 -0.095696 -0.250827 -9.990746 -0.615078 -1.407126 -2.998098 0.951526
-0.419076 0.960197 2.072464 -5.402698 -5.757094 -17.660248 3.660368 1.799688 0.540163 0.571754 -4.209851 2.553658 1.718280 14.519260 1.372459 -4.409820 5.520005 4.157580 0.083807 -3.673015 1.527701 -2.434053 -18.031790 1.708369 0.038558 0.081757 -0.007372 -0.116244 -10.436668 -3.842250 0.171826 -10.434320 3.817685 -18.767603 16.476092 2.631603 -69.787660 15.814273 9.718907 -0.004489 -0.217040 -13.754469 -0.747204 -14.412350 0.915917 -18.188524 5.966621 17.950745 -61.254749 -0.810109 2.450443 1.669287 13.514313 14.865600 51.659754 18.023834 23.504000 0.075913 0.101190 31.964314 -0.453665 2.136153 2.262874 16.888835 2.502937 -17.945967 50.023878 -6.276826 -0.931444 8.048782 -25.955621 16.413540 -0.020445 12.696196 0.608271 -5.331886 -3.038500 3.540053 1.408917 -5.951818 -2.083304 5.815404 23.733539 -5.238472 -0.054059 1.791661 -0.121610 0.710388 -10.747133 0.395049 -1.388598 -4.174276 0.905702
-0.425223 0.950077 2.123492 -6.126420 -5.157951 -18.709683 4.043279 1.524561 0.490339 0.726291 -4.337493 2.583221 2.384022 14.815360 1.167236 -4.983330 5.206735 4.438506 0.099531 -3.668613 1.580399 -2.325852 -18.319001 2.420426 0.016392 0.077036 -0.096125 -0.159323 -10.443664 -3.926462 0.136103 -10.427433 3.721723 -19.052346 16.801065 3.405198 -71.825519 15.542354 12.739228 -0.290797 -0.138626 -12.663965 -2.064209 -13.144549 1.508302 -18.241652 5.875867 18.028423 -61.389555 -0.751997 2.430761 1.258478 13.334442 15.219802 51.364108 17.421311 24.590245 -0.194407 0.047706 32.996191 -0.867532 1.821883 2.472219 16.814236 2.549450 -18.010003 50.066377 -6.290554 -0.871764 8.728014 -25.610370 17.773468 0.054772 4.602723 0.523974 -6.106897 -4.152714 4.360146 1.298485 -6.148574 -2.115710 5.593729 26.597522 -5.764674 -0.025453 1.827638 -0.099047 1.982319 -10.666507 1.797711 -1.354433 -5.810447 0.813582
-0.430793 0.940715 2.175729 -6.119192 -4.651596 -19.420307 3.986301 1.210877 0.563730 0.789361 -4.512301 2.591261 2.623391 14.931925 0.918657 -5.084415 4.904809 4.488706 0.123674 -3.660778 1.637317 -2.152633 -18.308763 2.948030 0.001586 0.071781 -0.157379 -0.164121 -10.460776 -3.981422 0.088882 -10.440457 3.652471 -19.194273 17.024623 3.679239 -73.179057 15.011445 14.913234 -0.758553 -0.005805 -11.798375 -3.479443 -10.877774 2.407177 -18.311230 5.803296 18.141713 -61.218875 -0.651899 2.430324 1.364086 13.292043 15.169779 51.723164 16.697900 25.032611 -0.517462 0.032559 34.057647 -1.334768 1.535284 2.500753 16.887069 2.499866 -17.980966 50.020292 -6.320893 -0.831473 8.819235 -25.843387 18.997244 0.094793 3.916530 0.504064 -6.047898 -5.138856 4.725874 1.289584 -6.474120 -2.099726 4.486289 29.282069 -6.375382 0.015933 2.040114 -0.002012 3.179880 -9.697591 3.157093 -1.311979 -8.289476 0.789500
-0.436369 0.934178 2.229730 -4.861082 -4.099999 -19.958382 3.152835 0.465353 0.589766 0.737826 -4.869601 2.657708 2.363894 14.954160 0.941995 -4.750336 4.455657 4.297518 0.172957 -3.666995 2.041091 -2.118680 -17.398373 3.254382 0.000785 0.075869 -0.147307 -0.153561 -10.509520 -3.975572 0.081159 -10.475470 3.666588 -19.916202 16.994782 3.681528 -72.989068 13.590142 16.292726 -1.186545 0.092786 -11.023945 -4.567851 -7.790079 3.257973 -18.225567 5.891660 18.019895 -61.154677 -0.581921 2.356578 2.584779 13.500179 14.925910 51.937721 16.068093 24.393674 -0.704676 -0.063545 35.125221 -1.737867 0.802084 2.562279 17.052346 2.429845 -17.763586 49.982153 -6.217266 -0.721380 7.774565 -26.119114 20.019375 0.005734 8.059767 0.448325 -4.081596 -4.221383 4.210418 1.402818 -7.445389 -2.089290 1.706123 30.992014 -6.788710 0.166381 3.308409 0.136024 4.158192 -7.410758 4.853509 -1.269161 -13.062813 0.790877
-0.441786 0.934014 2.285924 -2.754545 -3.592210 -20.188326 1.833969 -0.573274 0.649102 0.602314 -5.348157 2.760996 1.860755 15.054385 0.865264 -4.398660 3.849791 4.203043 0.237900 -3.774147 2.116235 -1.909642 -16.390921 3.496796 0.024036 0.055173 -0.131872 -0.144662 -10.526574 -3.958812 0.125514 -10.493890 3.681206 -21.660839 16.171977 3.302726 -71.185718 12.681184 17.218008 -1.491273 0.157933 -10.129876 -5.285937 -5.864986 3.458863 -18.154662 5.984303 18.014561 -61.021709 -0.502498 2.243283 5.445155 13.628994 14.233961 51.480888 15.402431 22.745135 -0.600613 -0.033960 35.657112 -1.952220 0.963184 3.089309 16.916238 2.580519 -17.839805 50.235972 -6.091881 -0.731060 5.755141 -27.029122 20.200751 -0.023272 13.061429 0.460375 0.029573 3.116983 2.972499 1.525308 -7.770813 -1.986878 -2.105947 31.091750 -7.036367 0.223835 6.532271 0.278804 4.247278 -3.469601 6.297248 -1.209252 -19.763887 0.794360
-0.448163 0.937741 2.344226 -0.860041 -3.522158 -19.608161 1.030477 -1.171287 0.576773 0.394618 -5.704898 2.767001 0.746724 14.883434 0.804997 -3.794425 3.563777 3.921940 0.064940 -3.760086 1.709769 -1.689456 -16.510589 3.568980 0.036685 0.033124 -0.121388 -0.111481 -10.481462 -3.929722 0.124963 -10.481326 3.673521 -21.932031 15.857582 2.441110 -69.597430 12.285017 16.161582 -1.611829 0.174315 -8.882207 -5.666813 -4.529357 3.933093 -17.932986 6.116210 17.924302 -60.891981 -0.657752 2.265847 7.385300 13.985582 13.393911 52.860269 14.386586 20.792168 -0.379140 0.033642 35.321382 -2.219018 1.199205 3.919755 16.856521 2.549604 -17.916086 50.405134 -6.123059 -0.654914 3.391934 -27.668599 19.161429 0.030545 18.842414 0.449311 2.901843 5.682337 2.118400 1.583542 -5.931830 -1.898934 -5.417419 29.356485 -6.886145 -0.022820 13.299229 0.569991 3.128247 3.444348 6.249843 -1.172218 -27.858548 0.818573
-0.453868 0.944125 2.399734 0.410947 -3.973390 -18.289449 0.584745 -1.200698 0.437998 0.206763 -5.771805 2.544206 -0.338523 14.487506 0.693947 -3.078275 3.688189 3.724401 -0.324725 -3.714151 1.205445 -1.667734 -16.844885 2.908532 0.050446 0.049373 -0.074104 -0.076298 -10.417509 -3.871287 0.133567 -10.420302 3.706021 -20.845575 16.039290 1.215061 -68.625619 12.252188 13.258881 -1.357228 0.154613 -8.047274 -5.169549 -3.445069 4.808328 -17.894511 6.169291 17.857934 -61.047469 -0.823605 2.233815 7.592100 14.161719 12.806719 55.891409 13.831382 18.854816 -0.436242 -0.069997 33.604715 -1.775594 0.757882 4.176657 17.025758 2.446406 -17.720778 50.627752 -6.055938 -0.559853 0.704271 -26.083518 17.311307 -0.059055 22.398456 0.452719 4.483750 3.985382 1.885095 1.567359 -3.558398 -1.829139 -7.722120 25.489597 -5.946185 -0.279347 23.684798 0.880771 1.480035 13.963479 4.406946 -1.122263 -31.229253 0.668978
-0.458615 0.951858 2.452357 1.449398 -4.620777 -17.339723 0.093099 -0.865220 0.300137 0.081671 -5.541024 2.446246 -1.008640 14.062921 0.439459 -2.972277 3.517778 3.552597 -0.421676 -3.688327 0.901328 -1.765318 -16.834564 2.499383 0.063424 0.055378 -0.014314 -0.056405 -10.368339 -3.813510 0.161039 -10.375050 3.766967 -20.256038 15.963397 0.059892 -66.888803 11.915984 9.432049 -1.081448 0.155204 -8.401638 -4.253010 -3.508328 4.728810 -17.948654 6.072198 17.694198 -60.947759 -0.988434 2.210655 7.683920 14.269404 12.658794 57.871985 13.834530 17.277737 -0.521615 -0.106962 31.059358 -0.742260 0.215971 3.749390 17.232976 2.395825 -17.601295 50.616298 -6.039604 -0.495116 -1.880311 -22.805282 15.982734 -0.101103 23.460977 0.467715 4.993418 0.600433 1.673999 1.573348 -3.052214 -1.859250 -9.775726 19.607567 -4.704386 -0.535633 36.107113 1.008983 1.087590 23.155688 2.306156 -0.985436 -16.000288 0.732931
-0.462635 0.959953 2.501731 2.426699 -5.272281 -16.719000 -0.540550 -0.428608 0.231631 -0.126242 -5.214546 2.272793 -1.326964 13.793996 0.051228 -3.146309 3.312422 3.624011 -0.257341 -3.691020 0.988847 -1.922180 -17.162761 2.259919 0.080607 0.089006 0.054861 -0.030768 -10.354707 -3.744880 0.193744 -10.340970 3.841722 -20.056182 15.587939 -0.830411 -64.601141 11.580639 4.783579 -0.630874 0.126033 -9.813168 -2.035525 -6.665703 3.412990 -18.376239 5.712580 17.875572 -60.803105 -1.241742 2.199747 8.127737 14.129100 12.731504 58.418031 14.741906 16.336400 -0.468524 -0.057671 27.676769 0.454286 0.185660 3.236255 17.305502 2.432535 -17.563398 50.400019 -6.039410 -0.569090 -4.315440 -18.659264 14.978082 -0.044821 22.522407 0.506722 4.797352 -2.224810 1.613990 1.563492 -2.828012 -1.907355 -11.389002 12.894235 -4.031972 -0.630534 48.244250 0.985127 0.088760 22.494582 0.749970 -1.113147 -6.681157 0.874913
-0.467901 0.969322 2.549384 2.433813 -5.788325 -15.779478 -0.786039 -0.010524 0.102241 -0.252411 -4.947507 1.828397 -1.087591 13.799763 -0.394382 -3.066198 3.332541 3.739027 -0.307464 -3.686575 1.007845 -2.151392 -17.558927 2.240887 0.089217 0.115332 0.088096 0.008581 -10.369876 -3.720000 0.186393 -10.369245 3.889363 -19.576291 15.162989 -1.686155 -62.378457 10.419920 -0.859631 -0.267672 0.061622 -11.285512 1.812065 -10.207742 2.147013 -18.664502 5.467988 18.226262 -60.687051 -1.419777 2.201030 8.544333 14.053453 12.624653 58.250789 16.167648 15.954557 -0.251974 0.003210 24.102686 1.534225 0.724961 2.809448 17.191658 2.487337 -17.543182 50.347262 -5.955923 -0.630232 -5.664816 -13.845894 13.945383 0.025007 20.219739 0.409109 4.440751 -4.125370 1.360500 1.542681 -2.646645 -1.966277 -11.297946 6.431066 -4.457758 -0.433424 57.097042 0.693248 -1.756419 14.984752 -1.741408 -1.234459 -5.853159 0.896128
-0.473912 0.979178 2.594776 1.445083 -6.165332 -14.330607 -0.606445 0.472821 -0.112023 -0.240802 -4.715262 1.154417 -0.402661 13.819634 -1.070655 -2.697215 3.671652 3.750186 -0.424508 -3.675925 1.030990 -2.411223 -17.584103 2.343153 0.083375 0.117724 0.097233 0.035447 -10.387532 -3.710706 0.155232 -10.410896 3.902372 -17.800411 14.823347 -2.913642 -61.470534 8.597006 -7.127002 -0.125588 -0.007241 -12.731310 5.914672 -12.808995 1.926256 -18.408238 5.594326 18.376899 -60.496359 -1.334615 2.184336 8.330471 14.099009 12.351454 58.420530 17.420998 15.839390 0.135741 0.071202 21.122515 3.108748 1.605913 1.991109 17.040547 2.501208 -17.539178 50.169838 -5.957147 -0.547005 -5.737271 -8.592478 12.829552 0.027131 16.992501 0.235470 3.979561 -5.309201 0.696687 1.534794 -2.502577 -1.959985 -9.536816 0.275809 -5.337295 0.054403 61.828590 0.099246 -3.819217 9.219849 -4.668627 -1.299982 -5.747570 0.883748
-0.480032 0.987495 2.637287 0.169596 -6.527967 -12.497909 -0.393342 1.061863 -0.383563 -0.193324 -4.488739 0.361670 0.382610 13.697754 -1.910573 -2.028664 4.179342 3.573208 -0.474916 -3.673809 1.125492 -2.589728 -17.405743 2.554282 0.064652 0.107710 0.069682 0.035395 -10.435153 -3.739479 0.110576 -10.467550 3.874950 -14.753993 14.389817 -4.628503 -61.556936 7.236254 -12.858407 -0.230437 -0.038291 -15.120094 8.489398 -14.179352 2.369616 -17.949562 5.828526 18.313040 -60.164961 -1.188162 2.284353 7.788614 13.978865 11.902040 59.093447 18.186357 15.540534 0.532703 0.134269 19.180116 5.341313 2.802880 0.884891 16.970188 2.463119 -17.547246 49.906043 -6.053563 -0.444101 -5.228888 -3.183484 11.708967 0.020735 13.178752 0.052778 3.402600 -6.003675 -0.104711 1.531013 -2.316822 -1.918561 -7.201381 -5.419621 -6.103048 0.603742 62.688609 -0.549519 -5.117035 5.825276 -6.702414 -1.301482 -5.971445 0.825403
-0.486956 0.992896 2.680350 -0.849922 -6.816810 -10.409713 -0.340787 1.571133 -0.560234 -0.217305 -4.322293 -0.465868 1.026718 13.600857 -2.792401 -1.040869 4.602714 3.196361 -0.464651 -3.659352 1.286093 -2.647400 -17.133433 2.693348 0.044058 0.097038 0.019274 0.020988 -10.478692 -3.790609 0.068221 -10.508454 3.824981 -11.414221 13.687799 -6.583122 -61.087032 6.735460 -17.598358 -0.491224 0.031069 -19.135299 9.062718 -14.284345 2.899467 -17.662915 6.016926 18.379415 -59.908985 -1.126067 2.523098 7.801007 13.774797 11.120273 59.551673 18.419394 14.730149 0.689024 0.145626 18.620840 7.053179 4.094097 -0.082467 16.953059 2.462423 -17.590007 49.733951 -6.161519 -0.439827 -4.603150 2.117684 10.736947 0.002746 9.102904 -0.061347 2.642925 -6.441004 -1.164277 1.538729 -2.211172 -1.877998 -5.109309 -10.714884 -6.503590 0.850985 60.145682 -0.948146 -5.015659 3.877684 -7.040510 -1.303952 -6.261136 0.782009
-0.494804 0.994645 2.724171 -1.400798 -6.949252 -8.157773 -0.529628 1.858329 -0.628304 -0.337964 -4.206710 -1.221488 1.454460 13.586329 -3.643863 0.227320 4.919053 2.687957 -0.483331 -3.649617 1.370961 -2.540151 -16.967383 2.625034 0.029169 0.092114 -0.029229 -0.000633 -10.487970 -3.834250 0.043040 -10.502177 3.769057 -8.342511 12.827028 -8.446705 -59.575626 6.615092 -21.562182 -0.610601 0.189680 -24.451895 8.696715 -14.281847 3.104368 -17.567121 6.223891 18.665706 -59.860359 -1.071786 2.801643 8.523038 13.599502 9.884497 59.782401 17.780974 13.318531 0.530010 0.071296 19.625053 7.375705 4.831656 -0.606579 17.053793 2.490974 -17.641098 49.805181 -6.213129 -0.501080 -4.032130 6.953060 10.042212 -0.016805 5.402832 -0.088230 1.573106 -7.013282 -2.742470 1.557838 -2.134849 -1.857574 -3.612900 -15.362065 -6.559296 0.655595 54.196061 -0.918705 -3.519179 3.063571 -6.195855 -1.313145 -6.467464 0.800185
-0.502603 0.992205 2.767577 -1.395477 -6.951957 -5.808155 -0.990610 1.894435 -0.611795 -0.537974 -4.124656 -1.943057 1.575247 13.709566 -4.343310 1.635291 5.211291 2.063640 -0.555283 -3.638345 1.298525 -2.308880 -17.075316 2.394257 0.022208 0.097473 -0.052761 -0.027128 -10.465356 -3.856374 0.047758 -10.464043 3.743461 -5.622707 12.017544 -10.034926 -57.494505 6.270467 -25.147274 -0.417281 0.296663 -30.096431 8.460194 -14.614855 2.844719 -17.608500 6.403448 18.917621 -59.976458 -0.950393 2.985269 9.656691 13.476722 8.357160 60.063201 16.150813 11.319662 0.314036 -0.054490 22.059055 6.064193 4.453304 -0.429393 17.190517 2.522640 -17.690214 49.990713 -6.232486 -0.583135 -3.622411 10.854565 9.388922 -0.049497 3.173479 -0.051937 0.381981 -8.242025 -4.546108 1.580587 -2.054173 -1.859751 -2.907264 -18.712480 -6.437832 0.279623 44.894554 -0.553063 -1.188383 3.844535 -5.480997 -1.320257 -6.472328 0.871922
-0.510799 0.986353 2.811079 -0.965315 -6.963928 -3.541016 -1.595656 1.805380 -0.590184 -0.766583 -4.087936 -2.576120 1.389990 13.972013 -4.820205 2.927461 5.578460 1.368614 -0.600320 -3.624534 1.041523 -2.052890 -17.397126 2.174519 0.011919 0.111634 -0.068884 -0.062379 -10.453925 -3.875944 0.057458 -10.449184 3.730644 -3.119326 11.420717 -11.337078 -55.591302 5.266659 -28.628904 -0.106653 0.304850 -35.123558 8.659675 -14.483596 2.353390 -17.756368 6.399415 18.840366 -60.162300 -0.871787 3.018189 10.651968 13.404386 6.851891 60.521814 14.255355 9.039724 0.125920 -0.166802 25.135326 3.959249 3.443837 0.342319 17.270785 2.534644 -17.725717 50.238383 -6.224846 -0.641640 -3.395522 14.064833 8.488445 -0.078555 2.372627 0.024329 -0.604213 -10.087168 -5.989416 1.594993 -1.960787 -1.884572 -2.998525 -20.379488 -6.446679 0.108242 32.912336 -0.189836 0.827623 5.987858 -5.429413 -1.333334 -6.073093 0.974151
-0.519193 0.977879 2.855202 -0.177509 -7.074272 -1.514447 -2.286139 1.778847 -0.547707 -0.991058 -4.152210 -3.019901 1.015880 14.273180 -5.040092 3.937247 6.006489 0.707111 -0.612379 -3.580887 0.690867 -1.930981 -17.840151 1.787988 -0.002416 0.127785 -0.071740 -0.091144 -10.483028 -3.882858 0.057470 -10.483306 3.734050 -0.744782 11.012296 -12.430662 -54.569502 3.695375 -31.926705 0.097224 0.247359 -39.224808 9.068902 -13.282079 2.024824 -17.875559 6.291702 18.522462 -60.451053 -0.952508 2.926265 11.157780 13.454256 5.669966 61.258763 12.379694 6.776405 -0.006605 -0.188836 27.836621 1.988815 2.815760 1.086603 17.291542 2.579693 -17.756701 50.679573 -6.092929 -0.652053 -3.390163 17.199324 7.394635 -0.075885 2.205698 0.088619 -1.340836 -12.098797 -6.998562 1.595682 -2.081664 -1.935599 -3.711612 -20.475318 -6.681708 0.198044 19.245938 -0.076685 2.157870 7.451640 -5.291737 -1.324741 -5.516320 1.049541
-0.528278 0.967433 2.900926 0.731634 -6.974335 0.130746 -2.895138 1.638616 -0.496207 -1.219583 -4.286898 -3.166467 0.563550 14.424814 -5.099107 4.744018 6.349964 0.294153 -0.650170 -3.615107 0.225326 -2.008227 -18.077755 1.177974 0.003708 0.117917 -0.023757 -0.078514 -10.560068 -3.838095 0.075336 -10.558121 3.790199 1.120085 10.469043 -13.165580 -54.277514 2.319467 -34.596627 0.424074 0.064419 -42.887405 9.312854 -11.595250 2.194441 -17.910972 6.276930 18.262211 -60.603203 -1.137438 2.770010 11.645346 13.464782 4.931930 61.905993 10.572689 4.441649 0.001681 -0.084062 29.506922 0.570717 3.247180 1.552718 17.166229 2.636017 -17.682218 50.920260 -5.944599 -0.642848 -3.391179 20.281683 6.375851 -0.060728 2.061598 0.065558 -1.839657 -13.971779 -7.973638 1.604593 -2.531072 -1.914725 -4.526235 -20.185627 -6.781302 0.295343 6.047382 -0.103431 3.425210 6.143883 -5.352964 -1.256359 -5.304015 1.105667
-0.537533 0.956870 2.948349 1.055268 -6.583669 1.157043 -3.035929 1.326656 -0.497680 -1.334540 -4.432225 -3.180157 0.267960 14.527883 -4.975372 5.224135 6.308801 0.111117 -0.704607 -3.653078 -0.014713 -2.277273 -18.040722 0.717414 0.006666 0.076568 -0.050056 -0.097464 -10.615796 -3.867840 0.089920 -10.607371 3.770787 1.833666 9.633902 -13.316997 -54.742026 0.966668 -36.289252 0.635255 -0.100676 -46.417182 9.692785 -10.215393 2.098510 -17.929008 6.203572 18.072966 -60.956479 -1.248672 2.663605 12.661318 13.739359 4.738578 61.591022 9.054075 2.696161 0.071137 -0.030569 29.766710 -0.169866 4.142959 1.534086 16.987300 2.598035 -17.633458 50.482809 -6.159882 -0.747484 -2.765610 23.210460 5.343669 -0.083671 1.785459 0.088707 -2.321688 -15.519101 -8.515771 1.671498 -2.822941 -1.836899 -4.655415 -22.083590 -6.912583 0.105601 0.136066 -0.040484 4.583700 1.583344 -5.902533 -1.222313 -5.209459 1.091546
-0.547622 0.946794 2.997641 0.959289 -6.369574 1.761114 -2.965811 1.048492 -0.534162 -1.382236 -4.515200 -3.186951 0.268997 14.608996 -4.854640 5.303609 6.080144 0.120199 -0.762597 -3.610772 0.022841 -2.498526 -18.160909 0.400881 0.005343 0.084332 -0.064227 -0.112597 -10.584401 -3.880781 0.095412 -10.548676 3.755743 2.083377 9.378407 -13.206901 -56.620495 -0.904312 -37.176543 0.299145 -0.010788 -49.838486 10.665088 -9.452072 1.339443 -18.156016 6.146941 17.956636 -61.306519 -1.099639 2.623207 13.506366 14.139236 4.844453 61.329984 7.921253 1.978860 0.063615 -0.046620 28.113733 -0.547011 4.480353 1.463167 16.957861 2.495189 -17.479762 50.048365 -6.308988 -0.581662 -1.740397 26.145931 4.435441 -0.074225 1.994290 -0.036634 -2.652696 -16.151334 -8.356882 1.668164 -4.036989 -1.825195 -4.252343 -23.411244 -7.750680 0.052207 -0.073751 0.053454 4.957329 -1.511244 -6.011341 -1.224930 -5.465004 1.060550
-0.558072 0.938741 3.050361 -0.024676 -5.956022 2.183311 -2.333120 0.437193 -0.454555 -1.343722 -4.682870 -3.359706 0.583532 14.774041 -4.823086 5.013710 5.633858 0.276994 -0.813075 -3.583912 -0.078985 -2.567776 -17.939937 0.152417 -0.001091 0.109130 -0.077579 -0.129903 -10.527096 -3.902248 0.094430 -10.482635 3.747993 1.531799 9.482848 -12.968113 -58.089850 -1.926586 -36.956708 0.186698 0.128346 -52.783176 11.719398 -9.587975 0.493415 -18.372916 6.076013 17.895014 -61.217338 -1.069163 2.565942 14.582563 14.338154 5.012982 61.074456 7.095581 1.699028 -0.143618 -0.097296 25.329096 -0.837335 4.105596 1.262462 16.886630 2.461656 -17.368223 49.886540 -6.278989 -0.447832 0.450755 27.864369 3.894589 0.006855 4.237680 -0.298553 -2.969237 -16.083794 -8.471205 1.625196 -6.807862 -1.866697 -2.757385 -23.338192 -8.181293 0.154041 2.929197 0.020208 3.202844 -0.882720 -5.756209 -1.226271 -6.207506 1.125719
-0.570038 0.934807 3.105271 -2.708532 -4.984049 2.338804 -0.564689 -0.657888 -0.546822 -1.195120 -5.171452 -3.285940 1.499716 15.052608 -5.072949 4.416634 5.104897 0.693079 -0.809985 -3.556029 -0.154301 -2.863797 -17.158102 0.003041 -0.008261 0.079869 -0.098346 -0.153672 -10.480788 -3.929781 0.102348 -10.467027 3.729581 -1.157848 9.582284 -12.374579 -57.492174 -1.854680 -35.317312 0.344628 0.035042 -54.793344 12.175897 -9.633845 -0.418446 -18.317375 6.009961 17.971858 -60.828220 -1.164345 2.574610 16.545118 14.122574 5.217846 60.131395 5.821349 1.499117 -0.192006 -0.106857 21.750257 -1.265152 4.206663 0.789619 16.810981 2.487902 -17.357304 50.020112 -6.281599 -0.382344 4.903129 27.466179 4.467978 0.134528 9.148613 -0.565180 -3.575001 -14.830539 -10.001509 1.563225 -12.056438 -1.841695 0.697468 -24.985591 -7.459458 0.189774 9.031405 -0.048786 1.004438 5.628227 -5.683451 -1.257081 -6.187119 1.122672
-0.583122 0.933576 3.161461 -5.185065 -4.590176 1.966406 0.574549 -1.205124 -0.593123 -0.913358 -5.470110 -3.517130 2.823031 15.044445 -4.968903 3.580546 4.820787 0.991044 -0.834543 -3.611123 0.346618 -2.996863 -17.286097 0.117894 -0.013273 0.043722 -0.134900 -0.147472 -10.510408 -3.980857 0.075628 -10.513424 3.705146 -3.242391 9.918550 -11.530042 -57.915480 -1.290731 -32.760988 0.549111 0.019221 -54.969993 12.368199 -9.283985 -1.376872 -18.363267 5.786277 17.837250 -60.601707 -1.120724 2.510762 16.537223 14.247695 5.992495 60.887427 5.748871 2.290243 -0.540212 -0.227433 17.495175 -1.724969 3.866176 -0.122215 16.850526 2.456834 -17.321403 50.086008 -6.219472 -0.354929 8.987493 26.181771 4.827363 0.285577 16.578611 -0.793846 -2.918895 -10.580848 -10.069457 1.442268 -20.009748 -1.806439 4.053577 -26.653484 -6.641091 0.092175 16.634593 -0.022313 0.790092 8.027431 -5.794865 -1.293224 -4.595874 1.119557
-0.594991 0.936668 3.216941 -6.642636 -4.836449 0.997497 1.214369 -1.033430 -0.579271 -0.582189 -5.433928 -3.607717 3.489318 14.600846 -4.579656 2.937797 4.840241 1.317138 -0.838917 -3.602141 0.521861 -2.886538 -18.289854 0.614021 -0.017911 0.056254 -0.141472 -0.122440 -10.516253 -3.989755 0.037564 -10.510928 3.698376 -3.336877 10.456941 -11.022961 -60.471365 -0.517402 -29.600885 0.717438 -0.173539 -52.777893 12.439968 -9.692589 -1.687363 -18.339219 5.683852 17.660630 -60.290602 -0.942014 2.483171 14.168395 14.470823 7.020556 63.880944 6.848597 3.815158 -0.746243 -0.210255 14.076097 -1.684188 2.884174 -1.670391 16.931009 2.438095 -17.359122 50.073789 -6.224855 -0.401400 11.338043 23.157690 4.854491 0.442598 27.289737 -1.010849 -0.837202 -2.837713 -8.487892 1.374991 -27.289856 -1.752774 6.354040 -25.810582 -6.700810 0.082433 21.458591 -0.003745 0.871023 6.392952 -4.808022 -1.313165 -3.371062 1.040254
-0.605273 0.943068 3.267506 -7.805523 -5.370894 -0.095296 1.838493 -0.370426 -0.421431 -0.197092 -5.213749 -3.315336 3.884094 13.992797 -4.245819 2.267176 4.738316 1.618367 -0.663722 -3.591690 0.337744 -2.760121 -19.338965 0.830572 -0.002178 0.071334 -0.083732 -0.087062 -10.473025 -3.899524 0.051099 -10.447848 3.721322 -2.844379 11.399766 -10.796728 -63.140136 0.859859 -26.736612 0.920409 -0.412497 -48.400692 12.047159 -12.209274 -0.977802 -18.130225 5.561201 17.537998 -59.671793 -0.971490 2.474618 11.249425 14.626793 8.096168 67.066867 8.136979 5.191812 -0.497939 -0.072642 13.134949 -0.869508 2.910364 -3.026305 16.909168 2.474206 -17.413556 50.070972 -6.259113 -0.488606 13.155606 17.657752 4.868489 0.749630 40.955267 -1.300064 0.223435 8.253010 -6.479307 1.440673 -25.772757 -1.639798 8.221457 -22.670730 -7.453493 0.234726 22.861921 -0.160405 -0.489475 4.203535 -3.340137 -1.327649 -2.083156 1.001018
-0.615272 0.948936 3.315837 -9.302858 -5.695957 -0.605155 2.646079 0.331457 -0.407911 0.196144 -4.930656 -2.797921 4.477966 13.662976 -4.187967 1.964915 3.955683 1.533701 -0.536831 -3.584384 0.467899 -2.786828 -19.832190 1.250415 0.010553 0.063953 -0.063175 -0.083562 -10.483719 -3.884858 0.074813 -10.437205 3.740898 -3.616800 12.005115 -10.503294 -64.083083 2.617499 -24.058160 0.879493 -0.325658 -42.622016 10.500013 -14.886160 -0.247704 -18.028522 5.568485 17.562960 -59.457681 -0.960865 2.410187 10.009490 14.568882 8.643606 67.723282 10.391557 6.326489 -0.077920 0.003169 14.520329 -0.110900 1.989197 -2.414786 16.949874 2.466590 -17.432965 50.352129 -6.175234 -0.522812 15.357930 10.471725 4.508609 1.183237 53.983982 -1.552508 -1.440511 16.121149 -2.484818 1.626520 -11.113846 -1.819211 10.501673 -18.822004 -8.337344 0.192507 22.465951 -0.158377 -1.811056 1.194701 -2.668173 -1.353883 -1.822027 0.994569
-0.623139 0.955976 3.360085 -10.332579 -5.769251 -1.071408 3.268533 0.851562 -0.277240 0.402817 -4.636348 -2.392338 4.854297 13.607467 -4.008907 1.959563 3.027810 1.338728 -0.418718 -3.596908 0.730201 -2.937429 -20.413222 1.609365 0.011628 0.057731 -0.076756 -0.081142 -10.485368 -3.898027 0.067588 -10.440932 3.728262 -5.487167 12.628935 -10.045481 -63.529920 4.634054 -21.624642 0.668822 -0.279191 -35.496755 7.700597 -17.230962 0.162835 -17.906755 5.571993 17.687783 -59.499631 -1.016474 2.467614 10.459205 14.483129 8.603040 65.977139 12.528949 7.748094 0.321789 0.030120 17.058460 -0.236533 1.145714 -0.569712 17.047797 2.423918 -17.483481 50.442180 -6.134664 -0.576571 16.519263 2.830015 4.169190 1.399021 64.591177 -1.634131 -2.645309 14.589545 0.192030 1.763438 -5.989338 -1.927971 12.343722 -14.597432 -8.902253 0.091089 20.574875 -0.201466 -2.401488 -1.112520 -2.204997 -1.347705 -1.783408 0.992772
-0.629019 0.964950 3.404068 -10.243088 -5.933719 -1.986544 3.330891 1.300438 -0.071739 0.381401 -4.355899 -1.985033 4.708656 13.799978 -3.675506 2.107396 2.345195 1.232327 -0.332934 -3.546041 1.073454 -3.032691 -20.980528 2.083270 -0.001353 0.063891 -0.116896 -0.101201 -10.466073 -3.936024 0.048156 -10.437258 3.690962 -7.503740 13.312524 -9.426023 -63.212526 5.834022 -19.224174 0.317473 -0.152783 -26.889337 4.921471 -18.385457 0.775847 -17.893557 5.479844 17.809990 -59.769705 -1.095251 2.524411 11.412847 14.562679 8.586189 63.255758 13.987918 9.821209 0.541263 0.078530 19.548550 -1.285312 1.140154 1.204193 17.059226 2.390440 -17.536277 50.264045 -6.189550 -0.608411 16.010739 -4.231219 4.334342 0.890736 71.252878 -1.051720 -2.562449 8.793373 0.954124 1.743992 -5.892127 -1.913599 12.958967 -9.846149 -8.881430 0.046742 17.588193 -0.253393 -2.530218 -2.491624 -1.765935 -1.338668 -1.764836 0.985789
-0.633706 0.973800 3.447296 -9.506685 -6.302189 -3.384715 3.172084 1.851234 0.152076 0.279052 -4.065122 -1.507214 4.149790 13.936454 -3.311994 1.998974 2.139049 1.341437 -0.182040 -3.498326 1.522976 -3.031360 -21.361000 2.471933 -0.006316 0.071928 -0.128901 -0.118966 -10.449453 -3.949281 0.052090 -10.433172 3.682505 -8.794316 14.132526 -8.723993 -64.514835 5.501519 -16.599053 0.014414 -0.040720 -17.882088 3.407305 -18.202408 2.371124 -18.113886 5.381388 17.904265 -60.314728 -1.269986 2.487941 11.109057 14.622679 8.938862 61.424986 14.996357 12.371653 0.665757 0.141902 21.786055 -2.187639 1.510091 2.142749 16.984395 2.394595 -17.621630 50.061094 -6.267064 -0.625121 14.684969 -10.376017 5.239214 -0.026281 73.986156 -0.046993 -2.236333 3.734021 1.328788 1.702480 -6.278426 -1.901209 12.700339 -4.670112 -8.415881 0.041699 13.994028 -0.265843 -2.436528 -3.363276 -1.406157 -1.337048 -1.723155 0.978574
-0.636746 0.980559 3.489329 -8.499312 -6.755225 -5.210585 2.964439 2.450569 0.385472 0.198827 -3.775141 -0.932234 3.317841 13.950011 -2.914416 1.526288 2.216761 1.560120 0.014545 -3.490667 2.035471 -2.819179 -21.553418 2.823607 -0.000953 0.079069 -0.104662 -0.121482 -10.432498 -3.925818 0.073566 -10.422437 3.707756 -9.695298 15.044880 -7.809643 -66.551805 4.428182 -13.076850 0.059781 -0.019351 -10.996593 2.747635 -17.463962 4.408457 -18.324630 5.546957 18.019007 -60.821640 -1.389632 2.403256 9.462599 14.528869 9.629517 60.536920 16.181567 14.996397 0.688889 0.184813 24.165877 -2.372592 2.076269 2.561856 16.891972 2.439925 -17.696875 49.937295 -6.315235 -0.685643 13.256015 -15.462723 6.905080 -0.694259 73.034574 0.765376 -2.287511 0.352155 1.568871 1.647166 -6.602603 -1.882621 11.895121 0.614305 -7.646579 0.031072 10.224597 -0.257536 -2.178745 -3.998323 -0.971862 -1.351117 -1.633464 0.943633
-0.639267 0.985237 3.532236 -7.361392 -7.044566 -7.301241 2.695801 2.879819 0.530048 0.165497 -3.578228 -0.194633 2.380638 13.932307 -2.426631 0.777823 2.372602 1.879570 0.200093 -3.554151 2.443527 -2.510084 -21.466311 3.148746 0.007607 0.081208 -0.073453 -0.119705 -10.422337 -3.897402 0.099186 -10.424234 3.740115 -10.833188 15.809835 -6.494402 -68.008297 4.003586 -8.317808 0.059144 -0.011098 -7.602141 2.272529 -16.321663 5.386377 -18.311911 5.887753 17.943473 -61.187265 -1.214813 2.356728 7.388984 14.282966 10.474322 59.748156 17.446134 17.348213 0.647802 0.193808 26.949675 -1.910589 2.914811 2.949716 16.783671 2.534417 -17.729567 49.881972 -6.226877 -0.741473 11.952885 -19.491649 9.058915 -0.748276 68.422534 1.014740 -2.662647 -1.655106 1.779956 1.600270 -6.848842 -1.860868 10.623575 5.586897 -6.749076 0.020514 6.606718 -0.247538 -1.701184 -4.461984 -0.269382 -1.371271 -1.634114 0.904043
-0.641522 0.987681 3.576010 -6.218144 -7.135580 -9.518607 2.403168 3.071664 0.594466 0.150942 -3.513992 0.577691 1.483271 13.978598 -1.750488 -0.177689 2.504247 2.287586 0.382459 -3.633397 2.751020 -2.293384 -21.290104 3.342698 0.017291 0.080818 -0.049829 -0.124959 -10.409277 -3.875824 0.131704 -10.429705 3.765464 -12.216757 16.359283 -4.885081 -68.846764 4.569477 -3.057424 -0.193003 -0.007492 -6.840243 2.004851 -15.463481 5.195104 -18.268863 5.998174 17.719232 -61.384965 -0.965949 2.372237 5.406694 14.042273 11.382513 58.605405 18.507672 19.361084 0.626456 0.228058 30.063449 -1.226989 3.805989 3.498081 16.726899 2.602096 -17.812409 49.898787 -6.123788 -0.731666 10.888590 -22.339307 11.392169 -0.406798 60.696835 0.804608 -3.195968 -2.354188 1.982058 1.583318 -7.058928 -1.884708 8.953507 9.806075 -5.926211 0.029492 3.910724 -0.214878 -1.011151 -5.004224 0.757956 -1.391240 -1.742223 0.873521
-0.642455 0.987263 3.619138 -5.353633 -7.084789 -11.712665 2.265455 3.063697 0.553533 0.164432 -3.523234 1.300293 0.802549 14.119728 -0.937712 -1.332710 2.635014 2.738372 0.530785 -3.655336 3.094380 -2.214953 -21.245911 3.335677 0.026446 0.083193 -0.036748 -0.133469 -10.363649 -3.855903 0.162106 -10.400363 3.772096 -13.670108 16.743873 -3.167258 -69.536696 5.914177 2.160158 -0.482682 -0.011594 -7.471109 1.866819 -15.575047 4.463528 -18.288797 5.836294 17.521951 -61.219262 -0.857685 2.458866 3.561451 13.792494 12.239731 57.208038 19.309134 21.093846 0.472727 0.223747 33.388214 -0.581281 4.231141 4.081384 16.744634 2.603517 -17.943895 49.904265 -6.114438 -0.728369 10.264631 -23.942593 13.760879 -0.103412 50.255549 0.547536 -3.961838 -1.559986 1.937478 1.559772 -7.305973 -1.931043 7.258789 13.255486 -5.303644 0.046492 2.467196 -0.124679 -0.322101 -5.885422 1.917197 -1.407287 -1.875256 0.874398
-0.642496 0.983533 3.663046 -5.051625 -6.970404 -13.648521 2.478995 2.964777 0.500120 0.197555 -3.619631 1.736311 0.458793 14.378703 -0.084819 -2.577049 2.877893 3.193679 0.620677 -3.654819 3.396080 -2.193875 -21.386432 3.330355 0.033132 0.083089 -0.033613 -0.142489 -10.371371 -3.855266 0.183509 -10.400324 3.779658 -14.956460 17.038005 -1.546859 -70.392361 7.098335 6.816617 -0.602629 -0.036071 -8.556441 1.934796 -16.331103 3.632234 -18.278734 5.692824 17.426552 -60.906418 -0.817532 2.555062 1.964615 13.565036 12.896054 55.861922 19.553684 22.498254 0.295312 0.168952 36.638930 -0.231687 3.995446 4.535255 16.805549 2.589473 -18.046451 49.948745 -6.144644 -0.757508 10.141304 -24.206040 15.985352 0.012245 37.714523 0.495074 -4.623649 -0.390863 2.031478 1.544129 -7.236523 -1.957329 5.982196 16.217707 -4.820335 0.037237 1.946186 -0.043037 0.228910 -7.084596 3.065889 -1.415177 -2.119341 0.936209
-0.642141 0.976588 3.709313 -5.344593 -6.834046 -15.277172 3.003556 2.856064 0.464094 0.280966 -3.748030 1.910708 0.490428 14.667819 0.569507 -3.791642 3.204115 3.715503 0.629627 -3.672181 3.463180 -2.065782 -21.526020 3.564578 0.034375 0.086790 -0.045293 -0.151702 -10.438629 -3.882843 0.186848 -10.435199 3.784351 -16.068709 17.270216 0.011839 -71.349980 7.726684 10.653417 -0.551749 -0.088491 -9.477654 2.015345 -17.024821 3.037982 -18.212311 5.721581 17.457957 -60.680871 -0.737020 2.630457 0.650848 13.456437 13.408792 54.805848 19.186224 23.646101 0.093731 0.032429 39.454220 -0.270458 3.286328 4.796998 16.861516 2.587874 -18.062556 50.004277 -6.143003 -0.826087 10.359090 -23.462881 17.747168 -0.005660 24.064199 0.514950 -5.140685 0.005623 2.481015 1.531333 -6.713216 -1.977344 5.200678 19.097329 -4.457989 -0.001687 1.822720 -0.014907 0.791409 -8.447071 3.979777 -1.415077 -2.677923 0.996626
-0.641697 0.967755 3.757509 -5.911294 -6.655604 -16.600220 3.510739 2.646377 0.363193 0.418298 -3.899374 2.047558 0.872287 15.014799 0.804961 -4.730262 3.511595 4.199239 0.551408 -3.617077 3.548186 -1.911087 -21.606349 3.968912 0.051453 0.095984 -0.000451 -0.140325 -10.499256 -3.854718 0.221634 -10.460985 3.847751 -17.171884 17.576682 1.475181 -72.139501 7.656530 13.365661 -0.327599 -0.128234 -9.958168 1.760803 -17.268477 2.714820 -18.343666 5.681596 17.638156 -60.741439 -0.707688 2.626032 -0.283334 13.352319 13.873457 54.152881 18.277002 24.449311 0.096189 0.014090 41.547909 -0.818525 2.406336 4.871859 16.868329 2.608034 -18.153665 50.137412 -6.257111 -1.029605 10.758254 -22.650921 18.505898 -0.069988 11.541487 0.399102 -5.143641 -0.836465 3.144788 1.419436 -6.441880 -2.106977 4.546685 22.107744 -4.508901 -0.014920 1.823496 -0.018305 1.556946 -9.847734 4.897294 -1.417420 -3.442791 0.900136
-0.640656 0.957814 3.805736 -6.390791 -6.449437 -17.390116 3.839038 2.329770 0.285950 0.540490 -4.020033 2.078527 1.377546 15.372604 0.754397 -5.373346 3.729093 4.543768 0.538671 -3.637639 3.623888 -1.779258 -21.498634 4.315893 0.034344 0.089336 -0.047632 -0.177497 -10.517414 -3.895499 0.204726 -10.453633 3.794006 -18.003484 17.724575 2.466661 -72.554294 7.087764 14.831839 -0.302412 -0.125873 -9.625479 1.160194 -16.781506 2.464423 -18.544987 5.615730 17.896735 -61.026887 -0.817607 2.673392 -0.540130 13.416962 14.032981 53.818145 17.067685 25.012021 -0.033451 -0.021465 42.737764 -1.485082 1.335976 4.992221 16.708011 2.643663 -18.163837 50.072340 -6.314139 -1.010733 11.379737 -22.740945 19.048063 -0.052811 4.098528 0.332085 -5.479756 -1.848119 3.904198 1.333830 -6.486948 -2.151381 3.851534 25.109922 -4.856636 -0.022725 1.793593 0.003889 2.641099 -10.550475 5.642917 -1.395147 -4.484732 0.816882
-0.638996 0.947752 3.853246 -6.707822 -6.403007 -17.646664 4.074106 2.124236 0.233875 0.648021 -4.102390 2.082150 1.746576 15.553814 0.510294 -5.684177 3.912767 4.717269 0.556643 -3.639449 3.471289 -1.621355 -21.348897 4.645070 0.013610 0.079202 -0.100002 -0.173639 -10.522963 -3.933634 0.139948 -10.452932 3.726120 -18.360531 17.927116 2.875544 -72.678793 6.444128 15.145326 -0.466574 -0.063887 -9.021996 0.639455 -15.892461 2.500221 -18.700194 5.569914 17.980920 -61.191236 -0.802429 2.601784 -0.519492 13.555587 13.892419 54.455666 15.619177 25.028543 -0.267294 -0.000543 43.255107 -2.187557 0.451257 5.052872 16.627516 2.615615 -18.042932 49.964664 -6.305527 -0.862080 12.004887 -23.431102 19.591237 0.009168 3.543023 0.301526 -5.642512 -3.701350 4.426083 1.335365 -6.516932 -2.120558 3.032155 28.234004 -5.413498 -0.045306 1.770314 0.059384 3.549839 -10.205274 5.986320 -1.351949 -6.114420 0.750107
-0.636781 0.939790 3.903071 -6.376140 -6.296515 -17.610779 3.939148 1.695390 0.292772 0.748802 -4.355494 2.088904 1.901878 15.518228 0.240370 -5.668917 4.172242 4.747953 0.489863 -3.605512 3.325443 -1.564720 -20.575632 4.621196 0.018011 0.072199 -0.091685 -0.133065 -10.608908 -3.931090 0.113197 -10.539970 3.739653 -18.847703 18.017078 2.924692 -71.968271 5.393132 14.845647 -0.868454 0.011981 -8.614494 0.605502 -14.229389 2.918606 -18.717197 5.661351 17.951328 -61.178582 -0.798044 2.561322 0.217994 13.580540 13.433775 55.236007 14.643790 24.177024 -0.416884 0.048877 42.946424 -2.812610 -0.646008 5.054516 16.640550 2.631255 -17.923175 49.940179 -6.349508 -0.838138 11.760852 -23.424760 19.916104 -0.021343 7.043472 0.224729 -4.847514 -4.509925 4.178748 1.397393 -7.232169 -2.136340 1.368085 30.690454 -5.788736 -0.025300 2.731888 0.149897 4.243413 -8.895713 6.201965 -1.305089 -9.081804 0.743576
-0.632647 0.937389 3.954537 -4.650370 -5.913897 -17.496536 2.920837 0.732976 0.371592 0.753958 -4.816393 2.168841 1.805474 15.435885 0.100650 -5.441650 4.047132 4.641991 0.544284 -3.647327 3.297474 -1.710402 -18.641364 4.639173 0.019776 0.043423 -0.103810 -0.127013 -10.685491 -3.941435 0.106790 -10.608476 3.724398 -20.357018 17.484093 2.803660 -69.752837 3.860088 14.107616 -1.124140 0.041375 -8.013333 0.725149 -11.476289 3.139216 -18.767314 5.837680 17.617442 -61.546017 -0.605703 2.466143 2.754645 13.893813 12.787881 54.673670 13.741086 22.642091 -0.358160 -0.039415 41.615800 -3.165372 -1.538538 5.260109 16.731837 2.673357 -17.782060 50.183351 -6.178354 -0.736260 9.849940 -23.692403 19.816127 -0.096942 11.453312 0.138582 -2.419097 0.192497 2.851415 1.538943 -8.294392 -2.021145 -2.295865 30.901555 -6.086402 0.065411 6.555209 0.289760 4.606519 -6.239165 7.111661 -1.243202 -15.106588 0.754957
-0.628085 0.938270 4.007861 -2.699285 -5.748815 -16.971704 1.955390 -0.103882 0.355244 0.672524 -5.166858 2.241005 1.442990 15.208713 -0.055222 -5.062419 3.952176 4.368530 0.503589 -3.694685 2.913503 -1.611846 -17.423703 4.716293 0.031906 0.015880 -0.108540 -0.104642 -10.678836 -3.929031 0.108971 -10.612386 3.704226 -21.551461 16.919001 2.325407 -67.391692 3.023725 12.339479 -1.003347 0.065955 -7.867417 0.674733 -9.509474 3.344746 -18.726915 5.948862 17.437090 -61.502893 -0.642243 2.455526 5.771350 14.192176 11.888891 54.509955 12.333226 20.766947 -0.225702 0.088379 38.738577 -3.434089 -1.341270 5.825541 16.664272 2.801531 -17.842118 50.432090 -6.011023 -0.698168 7.214639 -24.348106 18.900768 -0.044486 16.179558 0.150797 -0.125529 5.985222 1.323939 1.587402 -7.173104 -1.926940 -6.134671 29.160494 -7.041936 -0.136298 13.632931 0.654300 3.830327 -1.682800 7.958677 -1.170151 -23.038051 0.786270
-0.622928 0.941297 4.061423 -1.342761 -6.118903 -16.113899 1.464219 -0.309193 0.229970 0.527057 -5.261876 2.079241 0.957235 14.814697 0.019551 -4.572119 4.033885 3.981698 0.299247 -3.667017 2.456957 -1.497398 -16.948747 4.601422 0.026767 0.020633 -0.113724 -0.088506 -10.601997 -3.910126 0.083184 -10.551051 3.676863 -20.935139 16.889372 1.509494 -66.380156 2.634834 9.223677 -0.478408 0.045134 -9.130613 1.387078 -9.390206 3.036415 -18.658974 6.131373 17.486632 -61.506177 -0.961589 2.530119 7.161917 14.434032 11.325816 56.233756 10.679756 18.890695 -0.239470 0.020969 34.551265 -3.767599 -0.425517 6.037992 16.721637 2.778170 -17.852914 50.664932 -5.994420 -0.560465 4.608295 -23.743206 17.561466 -0.033014 20.521594 0.174690 0.914862 5.882528 0.482184 1.592479 -5.218725 -1.929671 -9.143842 25.895466 -7.769917 -0.541728 23.593318 1.130145 1.728340 5.430993 7.580744 -1.149279 -29.680113 0.792765
-0.617707 0.946302 4.112840 -0.349099 -6.753392 -15.279929 1.040973 -0.158001 0.040429 0.394265 -5.171848 1.766556 0.521867 14.503415 0.188279 -3.951126 4.010614 3.842146 0.157526 -3.653020 2.103111 -1.513829 -16.688687 4.181552 0.020870 0.046973 -0.103544 -0.080225 -10.483269 -3.872547 0.065154 -10.442831 3.659557 -19.438211 17.039806 0.537956 -65.995512 2.443091 5.382823 0.009671 -0.052429 -12.464013 2.982920 -11.751616 2.029580 -18.779594 5.963213 17.842630 -61.398039 -1.497603 2.409949 7.662537 14.332131 11.136976 58.287258 9.539176 16.926705 -0.524880 -0.151940 30.439116 -3.389383 0.891280 5.450900 16.863015 2.628533 -17.653084 50.829401 -6.021501 -0.477917 1.854912 -21.357859 15.963569 -0.122431 22.428618 0.248372 1.725962 3.675594 0.724225 1.567882 -3.463658 -2.003468 -11.520014 20.770740 -7.614074 -0.842977 35.356281 1.469102 -0.295322 14.120166 5.587471 -1.087161 -26.111207 0.683657
-0.613067 0.952302 4.156835 0.577985 -7.182689 -14.829380 0.429331 0.053685 -0.124430 0.312035 -5.096155 1.530954 0.156490 14.261790 0.236879 -3.598544 3.764641 3.399560 0.350770 -3.649946 2.469041 -1.510167 -16.757828 4.114715 0.014353 0.064264 -0.084918 -0.050579 -10.372398 -3.831123 0.030742 -10.369759 3.657281 -17.972199 16.877546 -0.499235 -65.083527 1.786404 1.426771 0.065764 -0.102717 -16.761210 4.200704 -12.742624 1.281529 -18.398028 5.734681 17.847566 -60.852845 -1.880861 2.215125 8.103291 14.165148 11.070938 59.853301 9.189986 15.078737 -0.891414 -0.221487 27.305014 -2.632460 1.603565 4.872040 16.854948 2.519839 -17.567158 50.627587 -6.054687 -0.511721 -0.568322 -18.559236 15.199320 -0.097239 23.114502 0.318535 2.436671 0.856850 0.811995 1.580360 -3.279254 -2.046298 -12.815048 14.462766 -6.915648 -1.048960 46.569335 1.527242 -2.033280 18.524680 2.926720 -1.125752 -11.913261 0.831015
